{
"type": "FeatureCollection",
"name": "areas_par",
"features": [
{ "type": "Feature", "properties": { "Name": "CA-DE001", "description": null, "timestamp": null, "begin": null, "end": null, "altitudeMode": null, "tessellate": -1, "extrude": 0, "visibility": -1, "drawOrder": null, "icon": null, "id": null }, "geometry": { "type": "Polygon", "coordinates": [ [ [ -47.0179178, -22.9316541 ], [ -47.0173599, -22.9316555 ], [ -47.0173563, -22.9315324 ], [ -47.0179327, -22.9315407 ], [ -47.0179178, -22.9316541 ] ] ] } },
{ "type": "Feature", "properties": { "Name": "CA-DE002", "description": null, "timestamp": null, "begin": null, "end": null, "altitudeMode": null, "tessellate": -1, "extrude": 0, "visibility": -1, "drawOrder": null, "icon": null, "id": null }, "geometry": { "type": "Polygon", "coordinates": [ [ [ -47.0331663, -22.9274724 ], [ -47.0331743, -22.9274594 ], [ -47.0331833, -22.9274456 ], [ -47.0331876, -22.9274355 ], [ -47.0331908, -22.9274216 ], [ -47.0331913, -22.9274105 ], [ -47.0331928, -22.9273906 ], [ -47.0331955, -22.927372 ], [ -47.0331976, -22.9273535 ], [ -47.0332011, -22.9273335 ], [ -47.0332053, -22.9273152 ], [ -47.0332087, -22.927299 ], [ -47.0332114, -22.9272812 ], [ -47.0332153, -22.927263 ], [ -47.0332186, -22.9272452 ], [ -47.0332225, -22.9272272 ], [ -47.033226, -22.9272102 ], [ -47.0332293, -22.9271923 ], [ -47.033233, -22.9271751 ], [ -47.0332386, -22.9271403 ], [ -47.0332421, -22.9271211 ], [ -47.0332461, -22.9271041 ], [ -47.0332484, -22.9270889 ], [ -47.0332489, -22.9270865 ], [ -47.0332518, -22.9270699 ], [ -47.0332546, -22.9270513 ], [ -47.0332584, -22.9270337 ], [ -47.0332607, -22.927018 ], [ -47.033261, -22.9270159 ], [ -47.0332626, -22.9270009 ], [ -47.0332651, -22.9269802 ], [ -47.0332698, -22.9269611 ], [ -47.0332708, -22.9269563 ], [ -47.0332727, -22.9269446 ], [ -47.0332766, -22.9269267 ], [ -47.0332793, -22.9269114 ], [ -47.03328, -22.9269037 ], [ -47.0332805, -22.9268954 ], [ -47.0332828, -22.9268741 ], [ -47.033284, -22.926869 ], [ -47.0332873, -22.9268535 ], [ -47.0332912, -22.9268391 ], [ -47.0332935, -22.9268222 ], [ -47.0332961, -22.9268031 ], [ -47.0332981, -22.9267927 ], [ -47.0332985, -22.9267913 ], [ -47.0333007, -22.926783 ], [ -47.0333039, -22.9267659 ], [ -47.0333082, -22.9267472 ], [ -47.0333719, -22.9264556 ], [ -47.033372, -22.9264555 ], [ -47.0333738, -22.9264455 ], [ -47.0333781, -22.9264263 ], [ -47.0333823, -22.9264095 ], [ -47.0333851, -22.926393 ], [ -47.0333884, -22.926374 ], [ -47.0333897, -22.9263681 ], [ -47.0333901, -22.9263662 ], [ -47.0333942, -22.9263531 ], [ -47.0333981, -22.9263368 ], [ -47.0333999, -22.9263288 ], [ -47.0334011, -22.9263192 ], [ -47.0334075, -22.9262977 ], [ -47.0334124, -22.9262823 ], [ -47.033416, -22.9262646 ], [ -47.0334216, -22.9262428 ], [ -47.0334264, -22.9262308 ], [ -47.0334265, -22.9262305 ], [ -47.0334291, -22.9262244 ], [ -47.0334339, -22.9262083 ], [ -47.0334387, -22.9261931 ], [ -47.0334398, -22.9261894 ], [ -47.0334456, -22.926174 ], [ -47.0334482, -22.92616 ], [ -47.033449, -22.9261544 ], [ -47.0334553, -22.9261343 ], [ -47.0334625, -22.9261173 ], [ -47.0334675, -22.9261003 ], [ -47.0334747, -22.9260806 ], [ -47.0335661, -22.9261053 ], [ -47.0334562, -22.9265837 ], [ -47.0334091, -22.9268148 ], [ -47.0333688, -22.9271568 ], [ -47.0333205, -22.92748 ], [ -47.0332573, -22.9276794 ], [ -47.03319, -22.9278814 ], [ -47.0331853, -22.9278935 ], [ -47.0331586, -22.9278902 ], [ -47.0331557, -22.9278898 ], [ -47.0331529, -22.9278893 ], [ -47.0331501, -22.9278887 ], [ -47.0331473, -22.9278881 ], [ -47.0331445, -22.9278873 ], [ -47.0331418, -22.9278865 ], [ -47.0331391, -22.9278856 ], [ -47.0331364, -22.9278846 ], [ -47.0331331, -22.9278832 ], [ -47.0331312, -22.9278823 ], [ -47.0331287, -22.927881 ], [ -47.0331262, -22.9278797 ], [ -47.0331237, -22.9278783 ], [ -47.0331214, -22.9278768 ], [ -47.033119, -22.9278752 ], [ -47.0331168, -22.9278736 ], [ -47.0331146, -22.9278718 ], [ -47.0331124, -22.9278701 ], [ -47.0331104, -22.9278682 ], [ -47.0331084, -22.9278663 ], [ -47.0331065, -22.9278643 ], [ -47.0331046, -22.9278622 ], [ -47.0331029, -22.9278601 ], [ -47.0331012, -22.927858 ], [ -47.0330996, -22.9278558 ], [ -47.0330981, -22.9278535 ], [ -47.0330966, -22.9278512 ], [ -47.0330953, -22.9278488 ], [ -47.033094, -22.9278464 ], [ -47.0330929, -22.927844 ], [ -47.0330918, -22.9278415 ], [ -47.0330908, -22.927839 ], [ -47.0330899, -22.9278365 ], [ -47.0330892, -22.9278339 ], [ -47.0330885, -22.9278313 ], [ -47.0330879, -22.9278287 ], [ -47.0330874, -22.9278261 ], [ -47.033087, -22.9278234 ], [ -47.0330867, -22.9278208 ], [ -47.0330865, -22.9278181 ], [ -47.0330864, -22.9278154 ], [ -47.0330864, -22.9278128 ], [ -47.0330865, -22.9278101 ], [ -47.0330867, -22.9278074 ], [ -47.0330871, -22.9278048 ], [ -47.0330875, -22.9278022 ], [ -47.033088, -22.9277995 ], [ -47.0330886, -22.9277969 ], [ -47.0330893, -22.9277943 ], [ -47.0330901, -22.9277918 ], [ -47.0330973, -22.9277795 ], [ -47.0331004, -22.927775 ], [ -47.0331017, -22.9277722 ], [ -47.0331058, -22.9277616 ], [ -47.0331093, -22.9277498 ], [ -47.0331156, -22.9277317 ], [ -47.0331201, -22.9277185 ], [ -47.0331249, -22.9277004 ], [ -47.0331294, -22.927683 ], [ -47.0331339, -22.9276659 ], [ -47.033138, -22.927649 ], [ -47.0331422, -22.9276315 ], [ -47.0331472, -22.9276109 ], [ -47.0331509, -22.9275966 ], [ -47.0331545, -22.9275808 ], [ -47.0331545, -22.9275807 ], [ -47.0331584, -22.9275636 ], [ -47.0331602, -22.9275524 ], [ -47.0331609, -22.9275481 ], [ -47.0331623, -22.927535 ], [ -47.0331613, -22.9275192 ], [ -47.0331611, -22.927495 ], [ -47.0331663, -22.9274724 ] ] ] } },
{ "type": "Feature", "properties": { "Name": "JU-DE001", "description": null, "timestamp": null, "begin": null, "end": null, "altitudeMode": null, "tessellate": -1, "extrude": 0, "visibility": -1, "drawOrder": null, "icon": null, "id": null }, "geometry": { "type": "Polygon", "coordinates": [ [ [ -46.8478797, -23.2047826 ], [ -46.8479894, -23.2050059 ], [ -46.8475699, -23.2051675 ], [ -46.847466, -23.2049448 ], [ -46.8475808, -23.2049 ], [ -46.8475498, -23.204836 ], [ -46.8476882, -23.2047767 ], [ -46.8477182, -23.2048444 ], [ -46.8478797, -23.2047826 ] ] ] } },
{ "type": "Feature", "properties": { "Name": "JU-DE002", "description": null, "timestamp": null, "begin": null, "end": null, "altitudeMode": null, "tessellate": -1, "extrude": 0, "visibility": -1, "drawOrder": null, "icon": null, "id": null }, "geometry": { "type": "Polygon", "coordinates": [ [ [ -46.8761183, -23.1900476 ], [ -46.8760927, -23.1900852 ], [ -46.8760669, -23.1901241 ], [ -46.8760398, -23.1901621 ], [ -46.8760133, -23.1902006 ], [ -46.8759853, -23.1902383 ], [ -46.8759583, -23.1902754 ], [ -46.8759317, -23.1903126 ], [ -46.875879, -23.1903886 ], [ -46.8758522, -23.1904263 ], [ -46.8758259, -23.1904641 ], [ -46.875799, -23.1905027 ], [ -46.875771, -23.1905402 ], [ -46.8757445, -23.1905768 ], [ -46.8757187, -23.1906151 ], [ -46.8756915, -23.1906527 ], [ -46.8756384, -23.190729 ], [ -46.8755851, -23.1908037 ], [ -46.8755343, -23.1908815 ], [ -46.8755048, -23.1909189 ], [ -46.8754787, -23.1909572 ], [ -46.8754268, -23.1909837 ], [ -46.8750172, -23.1915615 ], [ -46.8749121, -23.1914979 ], [ -46.8760064, -23.1899664 ], [ -46.8760852, -23.190026 ], [ -46.8761183, -23.1900476 ] ] ] } },
{ "type": "Feature", "properties": { "Name": "JU-DE003", "description": null, "timestamp": null, "begin": null, "end": null, "altitudeMode": null, "tessellate": -1, "extrude": 0, "visibility": -1, "drawOrder": null, "icon": null, "id": null }, "geometry": { "type": "Polygon", "coordinates": [ [ [ -46.8775889, -23.1878754 ], [ -46.8776094, -23.1879017 ], [ -46.8775797, -23.1879183 ], [ -46.8775499, -23.1879785 ], [ -46.8774675, -23.1881131 ], [ -46.877439, -23.1881518 ], [ -46.8774118, -23.1881892 ], [ -46.8773849, -23.1882262 ], [ -46.8773591, -23.1882636 ], [ -46.877333, -23.1883022 ], [ -46.8773054, -23.1883406 ], [ -46.8772783, -23.1883773 ], [ -46.8772527, -23.1884152 ], [ -46.8772257, -23.1884533 ], [ -46.8771994, -23.1884909 ], [ -46.8771733, -23.1885286 ], [ -46.8771475, -23.1885671 ], [ -46.8771209, -23.1886049 ], [ -46.8770954, -23.1886428 ], [ -46.8770696, -23.1886816 ], [ -46.877019, -23.188757 ], [ -46.8769938, -23.1887972 ], [ -46.8769661, -23.1888351 ], [ -46.8769409, -23.1888729 ], [ -46.8769144, -23.188912 ], [ -46.8768864, -23.1889497 ], [ -46.8768596, -23.1889872 ], [ -46.8768325, -23.1890241 ], [ -46.8768064, -23.1890627 ], [ -46.876778, -23.1890998 ], [ -46.8767519, -23.1891373 ], [ -46.8767246, -23.1891749 ], [ -46.8766982, -23.1892123 ], [ -46.8766723, -23.1892496 ], [ -46.8766472, -23.1892881 ], [ -46.8766207, -23.1893268 ], [ -46.8765942, -23.1893648 ], [ -46.8765678, -23.1894028 ], [ -46.8765414, -23.1894407 ], [ -46.8764746, -23.1894214 ], [ -46.8764114, -23.1893706 ], [ -46.877511, -23.1878294 ], [ -46.8775889, -23.1878754 ] ] ] } },
{ "type": "Feature", "properties": { "Name": "JU-DE004", "description": null, "timestamp": null, "begin": null, "end": null, "altitudeMode": null, "tessellate": -1, "extrude": 0, "visibility": -1, "drawOrder": null, "icon": null, "id": null }, "geometry": { "type": "Polygon", "coordinates": [ [ [ -46.8791696, -23.1853635 ], [ -46.879078, -23.1855432 ], [ -46.8790135, -23.1856424 ], [ -46.8790011, -23.1856614 ], [ -46.8789557, -23.1856407 ], [ -46.8789147, -23.1856927 ], [ -46.8788911, -23.1856799 ], [ -46.8790689, -23.1853241 ], [ -46.8791696, -23.1853635 ] ] ] } },
{ "type": "Feature", "properties": { "Name": "JU-DE005", "description": null, "timestamp": null, "begin": null, "end": null, "altitudeMode": null, "tessellate": -1, "extrude": 0, "visibility": -1, "drawOrder": null, "icon": null, "id": null }, "geometry": { "type": "Polygon", "coordinates": [ [ [ -46.8858373, -23.1782766 ], [ -46.8855211, -23.1784551 ], [ -46.8854961, -23.1784052 ], [ -46.8855228, -23.1783887 ], [ -46.8855653, -23.1783647 ], [ -46.8856074, -23.1783418 ], [ -46.8856476, -23.1783198 ], [ -46.885688, -23.1782943 ], [ -46.8857309, -23.1782715 ], [ -46.8857721, -23.1782477 ], [ -46.8858141, -23.1782255 ], [ -46.8858208, -23.1782439 ], [ -46.8858286, -23.1782605 ], [ -46.8858373, -23.1782766 ] ] ] } },
{ "type": "Feature", "properties": { "Name": "JU-DE006", "description": null, "timestamp": null, "begin": null, "end": null, "altitudeMode": null, "tessellate": -1, "extrude": 0, "visibility": -1, "drawOrder": null, "icon": null, "id": null }, "geometry": { "type": "Polygon", "coordinates": [ [ [ -46.8926984, -23.1746346 ], [ -46.8927084, -23.1746479 ], [ -46.8919342, -23.1749359 ], [ -46.891929, -23.1749187 ], [ -46.8918598, -23.1747781 ], [ -46.8919672, -23.1747316 ], [ -46.8920303, -23.1747028 ], [ -46.8920681, -23.1746842 ], [ -46.8921294, -23.1746548 ], [ -46.8922233, -23.1746145 ], [ -46.892293, -23.1745758 ], [ -46.8923671, -23.1745487 ], [ -46.8924119, -23.1745324 ], [ -46.8924759, -23.1745045 ], [ -46.8925281, -23.174482 ], [ -46.8926159, -23.1744391 ], [ -46.8926597, -23.1745411 ], [ -46.8926787, -23.1745961 ], [ -46.8926984, -23.1746346 ] ] ] } },
{ "type": "Feature", "properties": { "Name": "JU-DE007", "description": null, "timestamp": null, "begin": null, "end": null, "altitudeMode": null, "tessellate": -1, "extrude": 0, "visibility": -1, "drawOrder": null, "icon": null, "id": null }, "geometry": { "type": "Polygon", "coordinates": [ [ [ -46.9416127, -23.1028434 ], [ -46.9415287, -23.1030302 ], [ -46.9413835, -23.1034052 ], [ -46.9413535, -23.1035574 ], [ -46.9412923, -23.1035456 ], [ -46.9414033, -23.1031766 ], [ -46.9415527, -23.1028179 ], [ -46.9416127, -23.1028434 ] ] ] } },
{ "type": "Feature", "properties": { "Name": "JU-DE008", "description": null, "timestamp": null, "begin": null, "end": null, "altitudeMode": null, "tessellate": -1, "extrude": 0, "visibility": -1, "drawOrder": null, "icon": null, "id": null }, "geometry": { "type": "Polygon", "coordinates": [ [ [ -46.8843976, -23.1789658 ], [ -46.8844122, -23.1789778 ], [ -46.883855, -23.1792378 ], [ -46.8835023, -23.1793901 ], [ -46.8833002, -23.1794811 ], [ -46.8831515, -23.1793738 ], [ -46.8836015, -23.1791765 ], [ -46.8838872, -23.1790594 ], [ -46.8840339, -23.1790032 ], [ -46.8841628, -23.1789496 ], [ -46.8842667, -23.178913 ], [ -46.8843056, -23.1789 ], [ -46.8843474, -23.1788847 ], [ -46.8843642, -23.1789141 ], [ -46.8843976, -23.1789658 ] ] ] } },
{ "type": "Feature", "properties": { "Name": "JU-DE009", "description": null, "timestamp": null, "begin": null, "end": null, "altitudeMode": null, "tessellate": -1, "extrude": 0, "visibility": -1, "drawOrder": null, "icon": null, "id": null }, "geometry": { "type": "Polygon", "coordinates": [ [ [ -46.91328, -23.1370492 ], [ -46.9133108, -23.1370899 ], [ -46.9132604, -23.1371304 ], [ -46.9129853, -23.1372717 ], [ -46.9128222, -23.1373354 ], [ -46.9122865, -23.1375446 ], [ -46.9121404, -23.1376017 ], [ -46.9120734, -23.1375999 ], [ -46.9119956, -23.1375316 ], [ -46.9122455, -23.1374436 ], [ -46.9127137, -23.1372761 ], [ -46.9130219, -23.1371459 ], [ -46.91328, -23.1370492 ] ] ] } },
{ "type": "Feature", "properties": { "Name": "JU-DE010", "description": null, "timestamp": null, "begin": null, "end": null, "altitudeMode": null, "tessellate": -1, "extrude": 0, "visibility": -1, "drawOrder": null, "icon": null, "id": null }, "geometry": { "type": "Polygon", "coordinates": [ [ [ -46.9140347, -23.1366565 ], [ -46.9140105, -23.1366813 ], [ -46.9138766, -23.1367997 ], [ -46.9138328, -23.1368393 ], [ -46.9137876, -23.1368774 ], [ -46.9137597, -23.1368933 ], [ -46.9136638, -23.13682 ], [ -46.9139727, -23.1365922 ], [ -46.9140347, -23.1366565 ] ] ] } },
{ "type": "Feature", "properties": { "Name": "JU-DE011", "description": null, "timestamp": null, "begin": null, "end": null, "altitudeMode": null, "tessellate": -1, "extrude": 0, "visibility": -1, "drawOrder": null, "icon": null, "id": null }, "geometry": { "type": "Polygon", "coordinates": [ [ [ -46.9318267, -23.1233176 ], [ -46.9315947, -23.1234622 ], [ -46.9314878, -23.1233479 ], [ -46.9315221, -23.1233306 ], [ -46.9315594, -23.1233148 ], [ -46.9316525, -23.123265 ], [ -46.9315821, -23.1233031 ], [ -46.9317224, -23.1232277 ], [ -46.9318267, -23.1233176 ] ] ] } },
{ "type": "Feature", "properties": { "Name": "LO-DE001", "description": null, "timestamp": null, "begin": null, "end": null, "altitudeMode": null, "tessellate": -1, "extrude": 0, "visibility": -1, "drawOrder": null, "icon": null, "id": null }, "geometry": { "type": "Polygon", "coordinates": [ [ [ -46.9425767, -23.1018401 ], [ -46.9424927, -23.1019496 ], [ -46.9424231, -23.1020427 ], [ -46.9423721, -23.1021123 ], [ -46.9424193, -23.1021491 ], [ -46.9422666, -23.1023519 ], [ -46.9422354, -23.1023952 ], [ -46.9421901, -23.1024583 ], [ -46.9421556, -23.1025063 ], [ -46.9421104, -23.1025674 ], [ -46.9420926, -23.1025914 ], [ -46.9420307, -23.1026744 ], [ -46.9420019, -23.1027122 ], [ -46.9419502, -23.1027807 ], [ -46.9418858, -23.1028681 ], [ -46.9418385, -23.1029339 ], [ -46.9418082, -23.1029765 ], [ -46.941966, -23.1030776 ], [ -46.9417778, -23.1033453 ], [ -46.9417114, -23.1035327 ], [ -46.941657, -23.1036535 ], [ -46.9415987, -23.1037729 ], [ -46.941537, -23.1039034 ], [ -46.941511, -23.1040231 ], [ -46.9414383, -23.1040221 ], [ -46.9414472, -23.1038944 ], [ -46.9414467, -23.1038293 ], [ -46.9414659, -23.103599 ], [ -46.9414946, -23.1034514 ], [ -46.9416038, -23.1030879 ], [ -46.9416373, -23.1030025 ], [ -46.9418789, -23.1025135 ], [ -46.9421038, -23.1021723 ], [ -46.9421827, -23.1021149 ], [ -46.9423945, -23.1018389 ], [ -46.9424871, -23.1017554 ], [ -46.9425767, -23.1018401 ] ] ] } },
{ "type": "Feature", "properties": { "Name": "LO-DE002", "description": null, "timestamp": null, "begin": null, "end": null, "altitudeMode": null, "tessellate": -1, "extrude": 0, "visibility": -1, "drawOrder": null, "icon": null, "id": null }, "geometry": { "type": "Polygon", "coordinates": [ [ [ -46.9490388, -23.0909745 ], [ -46.9491044, -23.0909653 ], [ -46.9490759, -23.0910229 ], [ -46.9490409, -23.0910879 ], [ -46.9489864, -23.0911888 ], [ -46.9489697, -23.0912208 ], [ -46.9489575, -23.0912168 ], [ -46.9488121, -23.091474 ], [ -46.9487978, -23.0914969 ], [ -46.9487831, -23.091495 ], [ -46.9490388, -23.0909745 ] ] ] } },
{ "type": "Feature", "properties": { "Name": "VA-DE001", "description": null, "timestamp": null, "begin": null, "end": null, "altitudeMode": null, "tessellate": -1, "extrude": 0, "visibility": -1, "drawOrder": null, "icon": null, "id": null }, "geometry": { "type": "Polygon", "coordinates": [ [ [ -46.9904148, -22.9828671 ], [ -46.9904344, -22.982916 ], [ -46.9904815, -22.9832772 ], [ -46.9904331, -22.9832919 ], [ -46.990423, -22.9832474 ], [ -46.9903951, -22.9831024 ], [ -46.9903689, -22.9829486 ], [ -46.9903555, -22.9828941 ], [ -46.9903528, -22.9828415 ], [ -46.9903291, -22.9827024 ], [ -46.9902928, -22.9824943 ], [ -46.9902571, -22.9822843 ], [ -46.9902273, -22.9821032 ], [ -46.9902247, -22.9820897 ], [ -46.9902435, -22.9820795 ], [ -46.9902867, -22.9820762 ], [ -46.9903757, -22.9825789 ], [ -46.9903698, -22.9825819 ], [ -46.9903749, -22.9825938 ], [ -46.9903964, -22.9827168 ], [ -46.9903993, -22.982745 ], [ -46.9904148, -22.9828671 ] ] ] } },
{ "type": "Feature", "properties": { "Name": "VA-DE002", "description": null, "timestamp": null, "begin": null, "end": null, "altitudeMode": null, "tessellate": -1, "extrude": 0, "visibility": -1, "drawOrder": null, "icon": null, "id": null }, "geometry": { "type": "Polygon", "coordinates": [ [ [ -46.9897891, -22.9788455 ], [ -46.9896927, -22.9788662 ], [ -46.9897406, -22.979122 ], [ -46.9898304, -22.9790996 ], [ -46.9898835, -22.9794228 ], [ -46.9897761, -22.9794379 ], [ -46.9897276, -22.9791253 ], [ -46.9896875, -22.9788672 ], [ -46.9896148, -22.9784194 ], [ -46.989607, -22.9783718 ], [ -46.9896027, -22.9783451 ], [ -46.9895978, -22.9783151 ], [ -46.9895789, -22.9781845 ], [ -46.989568, -22.978121 ], [ -46.989534, -22.9779354 ], [ -46.9895533, -22.9779321 ], [ -46.9895674, -22.9779296 ], [ -46.9896298, -22.9779173 ], [ -46.9897891, -22.9788455 ] ] ] } },
{ "type": "Feature", "properties": { "Name": "VA-DE003", "description": null, "timestamp": null, "begin": null, "end": null, "altitudeMode": null, "tessellate": -1, "extrude": 0, "visibility": -1, "drawOrder": null, "icon": null, "id": null }, "geometry": { "type": "Polygon", "coordinates": [ [ [ -46.989515, -22.9774387 ], [ -46.9894859, -22.9774461 ], [ -46.9894244, -22.9770537 ], [ -46.9894874, -22.9770474 ], [ -46.9894903, -22.9770793 ], [ -46.9894779, -22.9770803 ], [ -46.9894606, -22.9770815 ], [ -46.9894772, -22.9771867 ], [ -46.989515, -22.9774387 ] ] ] } },
{ "type": "Feature", "properties": { "Name": "VI-DE001 - apenas CO", "description": null, "timestamp": null, "begin": null, "end": null, "altitudeMode": null, "tessellate": -1, "extrude": 0, "visibility": -1, "drawOrder": null, "icon": null, "id": null }, "geometry": { "type": "Polygon", "coordinates": [ [ [ -46.9621342, -23.0498815 ], [ -46.9621996, -23.0498102 ], [ -46.9622065, -23.0498075 ], [ -46.9622108, -23.0498095 ], [ -46.9621985, -23.0498723 ], [ -46.9621424, -23.0499506 ], [ -46.9620275, -23.0501195 ], [ -46.9619379, -23.0502481 ], [ -46.9618657, -23.0503116 ], [ -46.9617683, -23.0503998 ], [ -46.9616032, -23.0505282 ], [ -46.9614786, -23.0506169 ], [ -46.9613997, -23.0506763 ], [ -46.961371, -23.05062 ], [ -46.9614627, -23.0505715 ], [ -46.9614703, -23.0505979 ], [ -46.9618536, -23.0503022 ], [ -46.9619009, -23.0502189 ], [ -46.961915, -23.0502104 ], [ -46.9620254, -23.0500491 ], [ -46.9620477, -23.050001 ], [ -46.9620361, -23.0499885 ], [ -46.9621342, -23.0498815 ] ] ] } },
{ "type": "Feature", "properties": { "Name": "VI-DE002", "description": null, "timestamp": null, "begin": null, "end": null, "altitudeMode": null, "tessellate": -1, "extrude": 0, "visibility": -1, "drawOrder": null, "icon": null, "id": null }, "geometry": { "type": "Polygon", "coordinates": [ [ [ -46.9819668, -23.0191386 ], [ -46.9819343, -23.0191452 ], [ -46.9818573, -23.0187547 ], [ -46.9817526, -23.0186035 ], [ -46.9817341, -23.0184078 ], [ -46.9818501, -23.0183758 ], [ -46.9820102, -23.0191302 ], [ -46.9819668, -23.0191386 ] ] ] } },
{ "type": "Feature", "properties": { "Name": "VI-DE003", "description": null, "timestamp": null, "begin": null, "end": null, "altitudeMode": null, "tessellate": -1, "extrude": 0, "visibility": -1, "drawOrder": null, "icon": null, "id": null }, "geometry": { "type": "Polygon", "coordinates": [ [ [ -46.9820062, -23.0187665 ], [ -46.9820019, -23.0187252 ], [ -46.9819973, -23.0186853 ], [ -46.982021, -23.0186813 ], [ -46.9820469, -23.0186753 ], [ -46.9820849, -23.0186652 ], [ -46.9821247, -23.0188414 ], [ -46.9821686, -23.0189812 ], [ -46.9821899, -23.0190603 ], [ -46.9820838, -23.0190859 ], [ -46.9820706, -23.0190522 ], [ -46.9820062, -23.0187665 ] ] ] } },
{ "type": "Feature", "properties": { "Name": "VI-DE004", "description": null, "timestamp": null, "begin": null, "end": null, "altitudeMode": null, "tessellate": -1, "extrude": 0, "visibility": -1, "drawOrder": null, "icon": null, "id": null }, "geometry": { "type": "Polygon", "coordinates": [ [ [ -46.9801355, -23.0248734 ], [ -46.9802851, -23.024776 ], [ -46.9803215, -23.024818 ], [ -46.9803065, -23.0248297 ], [ -46.9802922, -23.0248407 ], [ -46.9802777, -23.0248532 ], [ -46.9802609, -23.0248662 ], [ -46.9802464, -23.0248768 ], [ -46.9802328, -23.0248887 ], [ -46.980217, -23.0249014 ], [ -46.980202, -23.0249134 ], [ -46.9801869, -23.0249254 ], [ -46.9801718, -23.0249375 ], [ -46.9801567, -23.0249495 ], [ -46.9801416, -23.0249616 ], [ -46.9801262, -23.0249736 ], [ -46.9801115, -23.0249851 ], [ -46.9800972, -23.0249969 ], [ -46.980088, -23.0250045 ], [ -46.9800415, -23.0249414 ], [ -46.9801355, -23.0248734 ] ] ] } },
{ "type": "Feature", "properties": { "Name": null, "description": null, "timestamp": null, "begin": null, "end": null, "altitudeMode": null, "tessellate": -1, "extrude": 0, "visibility": -1, "drawOrder": null, "icon": null, "id": null }, "geometry": { "type": "Polygon", "coordinates": [ [ [ -46.9938856, -22.9680757 ], [ -46.9936973, -22.9685095 ], [ -46.9935669, -22.9684695 ], [ -46.9937626, -22.9680272 ], [ -46.9938856, -22.9680757 ] ] ] } },
{ "type": "Feature", "properties": { "Name": null, "description": null, "timestamp": null, "begin": null, "end": null, "altitudeMode": null, "tessellate": -1, "extrude": 0, "visibility": -1, "drawOrder": null, "icon": null, "id": "1" }, "geometry": { "type": "Polygon", "coordinates": [ [ [ -46.9939065, -22.9680832 ], [ -46.9937626, -22.9680272 ], [ -46.9938655, -22.9677841 ], [ -46.9940068, -22.9678796 ], [ -46.9939065, -22.9680832 ] ] ] } },
{ "type": "Feature", "properties": { "Name": "JU-012", "description": null, "timestamp": null, "begin": null, "end": null, "altitudeMode": null, "tessellate": 1, "extrude": 0, "visibility": -1, "drawOrder": null, "icon": null, "id": null }, "geometry": { "type": "Polygon", "coordinates": [ [ [ -46.879144, -23.184045, 0.0 ], [ -46.8792885, -23.1840765, 0.0 ], [ -46.8791326, -23.1845101, 0.0 ], [ -46.8789614, -23.1844436, 0.0 ], [ -46.879144, -23.184045, 0.0 ] ] ] } },
{ "type": "Feature", "properties": { "Name": "JU-013", "description": null, "timestamp": null, "begin": null, "end": null, "altitudeMode": null, "tessellate": 1, "extrude": 0, "visibility": -1, "drawOrder": null, "icon": null, "id": null }, "geometry": { "type": "Polygon", "coordinates": [ [ [ -46.8977841, -23.1722152, 0.0 ], [ -46.8978573, -23.1722623, 0.0 ], [ -46.8976938, -23.1724655, 0.0 ], [ -46.8976216, -23.1724201, 0.0 ], [ -46.8977841, -23.1722152, 0.0 ] ] ] } },
{ "type": "Feature", "properties": { "Name": "JU-014", "description": null, "timestamp": null, "begin": null, "end": null, "altitudeMode": null, "tessellate": 1, "extrude": 0, "visibility": -1, "drawOrder": null, "icon": null, "id": null }, "geometry": { "type": "Polygon", "coordinates": [ [ [ -46.9010006, -23.167648, 0.0 ], [ -46.9011457, -23.1677261, 0.0 ], [ -46.8991809, -23.1704981, 0.0 ], [ -46.8985721, -23.1713147, 0.0 ], [ -46.8984933, -23.1711947, 0.0 ], [ -46.8986335, -23.1709233, 0.0 ], [ -46.8995559, -23.1695729, 0.0 ], [ -46.8998507, -23.1691772, 0.0 ], [ -46.9007978, -23.1678935, 0.0 ], [ -46.9010006, -23.167648, 0.0 ] ] ] } },
{ "type": "Feature", "properties": { "Name": "JU-015", "description": null, "timestamp": null, "begin": null, "end": null, "altitudeMode": null, "tessellate": 1, "extrude": 0, "visibility": -1, "drawOrder": null, "icon": null, "id": null }, "geometry": { "type": "Polygon", "coordinates": [ [ [ -46.9097788, -23.1384024, 0.0 ], [ -46.9090964, -23.1392793, 0.0 ], [ -46.9087909, -23.1390934, 0.0 ], [ -46.9096141, -23.1382936, 0.0 ], [ -46.9097788, -23.1384024, 0.0 ] ] ] } },
{ "type": "Feature", "properties": { "Name": "JU-016", "description": null, "timestamp": null, "begin": null, "end": null, "altitudeMode": null, "tessellate": 1, "extrude": 0, "visibility": -1, "drawOrder": null, "icon": null, "id": null }, "geometry": { "type": "Polygon", "coordinates": [ [ [ -46.939791, -23.1111225, 0.0 ], [ -46.9396854, -23.1112061, 0.0 ], [ -46.9395995, -23.1111087, 0.0 ], [ -46.9397092, -23.1110253, 0.0 ], [ -46.939791, -23.1111225, 0.0 ] ] ] } },
{ "type": "Feature", "properties": { "Name": "JU-016 apenas CO", "description": null, "timestamp": null, "begin": null, "end": null, "altitudeMode": null, "tessellate": 1, "extrude": 0, "visibility": -1, "drawOrder": null, "icon": null, "id": null }, "geometry": { "type": "Polygon", "coordinates": [ [ [ -46.9398269, -23.111159, 0.0 ], [ -46.9395096, -23.1114247, 0.0 ], [ -46.9392383, -23.1116421, 0.0 ], [ -46.9384961, -23.1121246, 0.0 ], [ -46.938456, -23.1120792, 0.0 ], [ -46.9397872, -23.1111176, 0.0 ], [ -46.9398269, -23.111159, 0.0 ] ] ] } },
{ "type": "Feature", "properties": { "Name": "LO-003", "description": null, "timestamp": null, "begin": null, "end": null, "altitudeMode": null, "tessellate": 1, "extrude": 0, "visibility": -1, "drawOrder": null, "icon": null, "id": null }, "geometry": { "type": "Polygon", "coordinates": [ [ [ -46.9473906, -23.0942781, 0.0 ], [ -46.9473887, -23.0942028, 0.0 ], [ -46.947437, -23.0939678, 0.0 ], [ -46.9475399, -23.0936216, 0.0 ], [ -46.947754, -23.0930117, 0.0 ], [ -46.9478538, -23.0930458, 0.0 ], [ -46.9477153, -23.0933443, 0.0 ], [ -46.9476584, -23.0935295, 0.0 ], [ -46.9475557, -23.0938417, 0.0 ], [ -46.9474579, -23.0942971, 0.0 ], [ -46.9473906, -23.0942781, 0.0 ] ] ] } },
{ "type": "Feature", "properties": { "Name": "LO-004", "description": null, "timestamp": null, "begin": null, "end": null, "altitudeMode": null, "tessellate": 1, "extrude": 0, "visibility": -1, "drawOrder": null, "icon": null, "id": null }, "geometry": { "type": "Polygon", "coordinates": [ [ [ -46.9487214, -23.0917425, 0.0 ], [ -46.9486886, -23.0918138, 0.0 ], [ -46.9486434, -23.0917962, 0.0 ], [ -46.9486772, -23.0917229, 0.0 ], [ -46.9487214, -23.0917425, 0.0 ] ] ] } },
{ "type": "Feature", "properties": { "Name": "VI-005 apenas CO", "description": null, "timestamp": null, "begin": null, "end": null, "altitudeMode": null, "tessellate": 1, "extrude": 0, "visibility": -1, "drawOrder": null, "icon": null, "id": null }, "geometry": { "type": "Polygon", "coordinates": [ [ [ -46.958245, -23.0510043, 0.0 ], [ -46.9580804, -23.050964, 0.0 ], [ -46.9579619, -23.0508871, 0.0 ], [ -46.9580092, -23.0508339, 0.0 ], [ -46.9580727, -23.050849, 0.0 ], [ -46.9582004, -23.0509482, 0.0 ], [ -46.958245, -23.0510043, 0.0 ] ] ] } },
{ "type": "Feature", "properties": { "Name": "VA-005", "description": null, "timestamp": null, "begin": null, "end": null, "altitudeMode": null, "tessellate": 1, "extrude": 0, "visibility": -1, "drawOrder": null, "icon": null, "id": null }, "geometry": { "type": "Polygon", "coordinates": [ [ [ -46.9939504, -22.9675378, 0.0 ], [ -46.9940576, -22.9672783, 0.0 ], [ -46.9940584, -22.9672783, 0.0 ], [ -46.9941585, -22.9673056, 0.0 ], [ -46.9941233, -22.9674434, 0.0 ], [ -46.9940769, -22.9676314, 0.0 ], [ -46.9939504, -22.9675378, 0.0 ] ] ] } },
{ "type": "Feature", "properties": { "Name": "CA-002", "description": null, "timestamp": null, "begin": null, "end": null, "altitudeMode": null, "tessellate": 1, "extrude": 0, "visibility": -1, "drawOrder": null, "icon": null, "id": null }, "geometry": { "type": "Polygon", "coordinates": [ [ [ -47.0336132, -22.9275841, 0.0 ], [ -47.033585, -22.9276848, 0.0 ], [ -47.0334168, -22.9276686, 0.0 ], [ -47.033443, -22.9275709, 0.0 ], [ -47.0336132, -22.9275841, 0.0 ] ] ] } },
{ "type": "Feature", "properties": { "Name": "CA-002 apenas CO", "description": null, "timestamp": null, "begin": null, "end": null, "altitudeMode": null, "tessellate": 1, "extrude": 0, "visibility": -1, "drawOrder": null, "icon": null, "id": null }, "geometry": { "type": "Polygon", "coordinates": [ [ [ -47.0329967, -22.9279758, 0.0 ], [ -47.0330774, -22.927616, 0.0 ], [ -47.033021, -22.9272571, 0.0 ], [ -47.0330662, -22.9267164, 0.0 ], [ -47.0331297, -22.9264982, 0.0 ], [ -47.0333367, -22.9265439, 0.0 ], [ -47.0332964, -22.9267608, 0.0 ], [ -47.0332002, -22.9273028, 0.0 ], [ -47.0331657, -22.9274719, 0.0 ], [ -47.0331423, -22.927618, 0.0 ], [ -47.0330829, -22.927817, 0.0 ], [ -47.0330548, -22.9279827, 0.0 ], [ -47.0329967, -22.9279758, 0.0 ] ] ] } },
{ "type": "Feature", "properties": { "Name": "CA-002 apenas CO", "description": null, "timestamp": null, "begin": null, "end": null, "altitudeMode": null, "tessellate": 1, "extrude": 0, "visibility": -1, "drawOrder": null, "icon": null, "id": null }, "geometry": { "type": "Polygon", "coordinates": [ [ [ -47.0329781, -22.9284616, 0.0 ], [ -47.0328833, -22.9284295, 0.0 ], [ -47.0328499, -22.9282635, 0.0 ], [ -47.0329708, -22.9281256, 0.0 ], [ -47.0330149, -22.9279808, 0.0 ], [ -47.0331472, -22.9279992, 0.0 ], [ -47.0329781, -22.9284616, 0.0 ] ] ] } },
{ "type": "Feature", "properties": { "Name": "CA-002 apenas CO", "description": null, "timestamp": null, "begin": null, "end": null, "altitudeMode": null, "tessellate": 1, "extrude": 0, "visibility": -1, "drawOrder": null, "icon": null, "id": null }, "geometry": { "type": "Polygon", "coordinates": [ [ [ -47.0331849, -22.9278951, 0.0 ], [ -47.033155, -22.9280003, 0.0 ], [ -47.0330529, -22.9279809, 0.0 ], [ -47.0330813, -22.9278288, 0.0 ], [ -47.0331193, -22.9278808, 0.0 ], [ -47.0331849, -22.9278951, 0.0 ] ] ] } },
{ "type": "Feature", "properties": { "Name": "CA-003", "description": null, "timestamp": null, "begin": null, "end": null, "altitudeMode": null, "tessellate": 1, "extrude": 0, "visibility": -1, "drawOrder": null, "icon": null, "id": null }, "geometry": { "type": "Polygon", "coordinates": [ [ [ -47.0312391, -22.9304923, 0.0 ], [ -47.0305656, -22.9308125, 0.0 ], [ -47.030523, -22.9307289, 0.0 ], [ -47.0307692, -22.930623, 0.0 ], [ -47.0311949, -22.9304202, 0.0 ], [ -47.0312391, -22.9304923, 0.0 ] ] ] } },
{ "type": "Feature", "properties": { "Name": "CA-003 apenas CO", "description": null, "timestamp": null, "begin": null, "end": null, "altitudeMode": null, "tessellate": 1, "extrude": 0, "visibility": -1, "drawOrder": null, "icon": null, "id": null }, "geometry": { "type": "Polygon", "coordinates": [ [ [ -47.032697, -22.9290341, 0.0 ], [ -47.0321372, -22.9297773, 0.0 ], [ -47.0316834, -22.9301494, 0.0 ], [ -47.0312053, -22.9304165, 0.0 ], [ -47.0305194, -22.9307211, 0.0 ], [ -47.0300321, -22.9308593, 0.0 ], [ -47.0295307, -22.9308918, 0.0 ], [ -47.0286402, -22.9308694, 0.0 ], [ -47.0286581, -22.9307348, 0.0 ], [ -47.0292211, -22.9308074, 0.0 ], [ -47.0296504, -22.9307875, 0.0 ], [ -47.0300928, -22.930729, 0.0 ], [ -47.0303645, -22.9306568, 0.0 ], [ -47.0306146, -22.9305763, 0.0 ], [ -47.0307236, -22.9304685, 0.0 ], [ -47.0311237, -22.930279, 0.0 ], [ -47.031494, -22.9300728, 0.0 ], [ -47.0317311, -22.929929, 0.0 ], [ -47.0320653, -22.9296575, 0.0 ], [ -47.0323478, -22.9293391, 0.0 ], [ -47.0324825, -22.9291129, 0.0 ], [ -47.0325791, -22.9289634, 0.0 ], [ -47.032697, -22.9290341, 0.0 ] ] ] } },
{ "type": "Feature", "properties": { "Name": "CA-004", "description": null, "timestamp": null, "begin": null, "end": null, "altitudeMode": null, "tessellate": 1, "extrude": 0, "visibility": -1, "drawOrder": null, "icon": null, "id": null }, "geometry": { "type": "Polygon", "coordinates": [ [ [ -47.0144718, -22.9314793, 0.0 ], [ -47.0151106, -22.9314933, 0.0 ], [ -47.0155976, -22.9315014, 0.0 ], [ -47.0163173, -22.9315021, 0.0 ], [ -47.0173556, -22.9315144, 0.0 ], [ -47.0173519, -22.9315642, 0.0 ], [ -47.0166094, -22.9315703, 0.0 ], [ -47.0165759, -22.9315704, 0.0 ], [ -47.0159414, -22.9315828, 0.0 ], [ -47.015591, -22.9315945, 0.0 ], [ -47.0151965, -22.9315931, 0.0 ], [ -47.0144715, -22.9315801, 0.0 ], [ -47.0144718, -22.9314793, 0.0 ] ] ] } },
{ "type": "Feature", "properties": { "Name": "CA-004 apenas CO", "description": null, "timestamp": null, "begin": null, "end": null, "altitudeMode": null, "tessellate": 1, "extrude": 0, "visibility": -1, "drawOrder": null, "icon": null, "id": null }, "geometry": { "type": "Polygon", "coordinates": [ [ [ -47.0173503, -22.9315679, 0.0 ], [ -47.0173506, -22.931623, 0.0 ], [ -47.0166203, -22.9316094, 0.0 ], [ -47.0164748, -22.9316097, 0.0 ], [ -47.0162007, -22.9316427, 0.0 ], [ -47.0159433, -22.9316474, 0.0 ], [ -47.0159407, -22.9316872, 0.0 ], [ -47.015184, -22.9316521, 0.0 ], [ -47.014889, -22.9316191, 0.0 ], [ -47.0146834, -22.9316286, 0.0 ], [ -47.0144778, -22.9316498, 0.0 ], [ -47.0144742, -22.9315858, 0.0 ], [ -47.0173503, -22.9315679, 0.0 ] ] ] } },
{ "type": "Feature", "properties": { "Name": "CA-005", "description": null, "timestamp": null, "begin": null, "end": null, "altitudeMode": null, "tessellate": 1, "extrude": 0, "visibility": -1, "drawOrder": null, "icon": null, "id": null }, "geometry": { "type": "Polygon", "coordinates": [ [ [ -47.018489, -22.9315368, 0.0 ], [ -47.018481, -22.931643, 0.0 ], [ -47.017972, -22.9316285, 0.0 ], [ -47.0179752, -22.9315261, 0.0 ], [ -47.018489, -22.9315368, 0.0 ] ] ] } },
{ "type": "Feature", "properties": { "Name": "CA-006 apenas CO", "description": null, "timestamp": null, "begin": null, "end": null, "altitudeMode": null, "tessellate": 1, "extrude": 0, "visibility": -1, "drawOrder": null, "icon": null, "id": null }, "geometry": { "type": "Polygon", "coordinates": [ [ [ -47.05036, -22.9173574, 0.0 ], [ -47.0502901, -22.9173186, 0.0 ], [ -47.05043, -22.9171396, 0.0 ], [ -47.0504888, -22.9171744, 0.0 ], [ -47.05036, -22.9173574, 0.0 ] ] ] } }
]
}
