{
  "type": "FeatureCollection",
  "name": "Croquis cadastrais TIC Trens",
  "features": [
    {
      "type": "Feature",
      "properties": {
        "fid_cadastro": 93,
        "codigo": "OC-TIC-LO-001-RE-001-O",
        "selagem": "LO-001-001",
        "status": "Concluído",
        "classificacao_dwg": "OCUPAÇÕES CADASTRADAS",
        "dwg_layer": "OCUPAÇÕES CADASTRADAS",
        "dwg_handle": "4B4D",
        "municipio": "Louveira",
        "origem": "ProjetoTICGeral15-09-26.dwg",
        "area_m2": 42.19,
        "perimetro_m": 29.76
      },
      "geometry": {
        "type": "Polygon",
        "coordinates": [
          [
            [
              -46.941952491925974,
              -23.102873482775074,
              0.0
            ],
            [
              -46.94193715392071,
              -23.102903845124942,
              0.0
            ],
            [
              -46.9418389218804,
              -23.102865088920364,
              0.0
            ],
            [
              -46.94185292653342,
              -23.10283214524814,
              0.0
            ],
            [
              -46.941952491925974,
              -23.102873482775074,
              0.0
            ]
          ]
        ]
      }
    },
    {
      "type": "Feature",
      "properties": {
        "fid_cadastro": 94,
        "codigo": "OC-TIC-LO-001-RE-002-O",
        "selagem": "LO-001-002",
        "status": "Concluído",
        "classificacao_dwg": "OCUPAÇÕES CADASTRADAS",
        "dwg_layer": "OCUPAÇÕES CADASTRADAS",
        "dwg_handle": "4B4E",
        "municipio": "Louveira",
        "origem": "ProjetoTICGeral15-09-26.dwg",
        "area_m2": 259.09,
        "perimetro_m": 71.77
      },
      "geometry": {
        "type": "Polygon",
        "coordinates": [
          [
            [
              -46.94185190101197,
              -23.10283455762136,
              0.0
            ],
            [
              -46.94178675209762,
              -23.10280607426885,
              0.0
            ],
            [
              -46.94172575719735,
              -23.10293271626859,
              0.0
            ],
            [
              -46.941931871083746,
              -23.103002321510644,
              0.0
            ],
            [
              -46.941951081131556,
              -23.102910316542143,
              0.0
            ],
            [
              -46.94193715392071,
              -23.102903845124942,
              0.0
            ],
            [
              -46.9418389218804,
              -23.102865088920364,
              0.0
            ],
            [
              -46.94185190101197,
              -23.10283455762136,
              0.0
            ]
          ]
        ]
      }
    },
    {
      "type": "Feature",
      "properties": {
        "fid_cadastro": 95,
        "codigo": "OC-TIC-LO-001-RE-003-O",
        "selagem": "LO-001-003",
        "status": "Concluído",
        "classificacao_dwg": "OCUPAÇÕES CADASTRADAS",
        "dwg_layer": "OCUPAÇÕES CADASTRADAS",
        "dwg_handle": "4B60",
        "municipio": "Louveira",
        "origem": "ProjetoTICGeral15-09-26.dwg",
        "area_m2": 291.39,
        "perimetro_m": 75.54
      },
      "geometry": {
        "type": "Polygon",
        "coordinates": [
          [
            [
              -46.941922728536106,
              -23.102999234053886,
              0.0
            ],
            [
              -46.941891471793376,
              -23.103118762710196,
              0.0
            ],
            [
              -46.94189823000745,
              -23.103120494111693,
              0.0
            ],
            [
              -46.94189142484237,
              -23.103139032104856,
              0.0
            ],
            [
              -46.94172417829362,
              -23.10308468640429,
              0.0
            ],
            [
              -46.94175711729218,
              -23.103008064947872,
              0.0
            ],
            [
              -46.94175488881754,
              -23.10299847931269,
              0.0
            ],
            [
              -46.941713747867205,
              -23.102982281130128,
              0.0
            ],
            [
              -46.94173486233289,
              -23.102935791106,
              0.0
            ],
            [
              -46.941922728536106,
              -23.102999234053886,
              0.0
            ]
          ]
        ]
      }
    },
    {
      "type": "Feature",
      "properties": {
        "fid_cadastro": 96,
        "codigo": "OC-TIC-LO-001-RE-004-O",
        "selagem": "LO-001-004",
        "status": "Concluído",
        "classificacao_dwg": "OCUPAÇÕES CADASTRADAS",
        "dwg_layer": "OCUPAÇÕES CADASTRADAS",
        "dwg_handle": "4B69",
        "municipio": "Louveira",
        "origem": "ProjetoTICGeral15-09-26.dwg",
        "area_m2": 134.44,
        "perimetro_m": 55.13
      },
      "geometry": {
        "type": "Polygon",
        "coordinates": [
          [
            [
              -46.94189142484237,
              -23.103139032104856,
              0.0
            ],
            [
              -46.941868817691876,
              -23.103196236865585,
              0.0
            ],
            [
              -46.941690442034734,
              -23.10313722979334,
              0.0
            ],
            [
              -46.941702322190146,
              -23.10310946391811,
              0.0
            ],
            [
              -46.941687606732664,
              -23.10310451030296,
              0.0
            ],
            [
              -46.941700881984175,
              -23.103076766870036,
              0.0
            ],
            [
              -46.94172417829362,
              -23.10308468640429,
              0.0
            ],
            [
              -46.94189142484237,
              -23.103139032104856,
              0.0
            ]
          ]
        ]
      }
    },
    {
      "type": "Feature",
      "properties": {
        "fid_cadastro": 97,
        "codigo": "OC-TIC-LO-001-RE-005-O",
        "selagem": "LO-001-005",
        "status": "Concluído",
        "classificacao_dwg": "OCUPAÇÕES CADASTRADAS",
        "dwg_layer": "OCUPAÇÕES CADASTRADAS",
        "dwg_handle": "4B72",
        "municipio": "Louveira",
        "origem": "ProjetoTICGeral15-09-26.dwg",
        "area_m2": 194.9,
        "perimetro_m": 74.27
      },
      "geometry": {
        "type": "Polygon",
        "coordinates": [
          [
            [
              -46.941868817691876,
              -23.103196236865585,
              0.0
            ],
            [
              -46.94190164525563,
              -23.103211064701654,
              0.0
            ],
            [
              -46.94188630913295,
              -23.103254557087578,
              0.0
            ],
            [
              -46.94187093630957,
              -23.103249418122346,
              0.0
            ],
            [
              -46.94186794882216,
              -23.103258398201433,
              0.0
            ],
            [
              -46.941598735883375,
              -23.103166607242454,
              0.0
            ],
            [
              -46.94162054779231,
              -23.103113323942875,
              0.0
            ],
            [
              -46.941690442034734,
              -23.10313722979334,
              0.0
            ],
            [
              -46.941868817691876,
              -23.103196236865585,
              0.0
            ]
          ]
        ]
      }
    },
    {
      "type": "Feature",
      "properties": {
        "fid_cadastro": 98,
        "codigo": "OC-TIC-LO-001-RE-006-O",
        "selagem": "LO-001-006",
        "status": "Concluído",
        "classificacao_dwg": "OCUPAÇÕES CADASTRADAS",
        "dwg_layer": "OCUPAÇÕES CADASTRADAS",
        "dwg_handle": "4B7B",
        "municipio": "Louveira",
        "origem": "ProjetoTICGeral15-09-26.dwg",
        "area_m2": 271.81,
        "perimetro_m": 82.61
      },
      "geometry": {
        "type": "Polygon",
        "coordinates": [
          [
            [
              -46.94189040593663,
              -23.10326605516171,
              0.0
            ],
            [
              -46.94188438899395,
              -23.103333927173075,
              0.0
            ],
            [
              -46.941566830238536,
              -23.103244235806326,
              0.0
            ],
            [
              -46.941598735883375,
              -23.103166607242454,
              0.0
            ],
            [
              -46.94186794882216,
              -23.103258398201433,
              0.0
            ],
            [
              -46.94189040593663,
              -23.10326605516171,
              0.0
            ]
          ]
        ]
      }
    },
    {
      "type": "Feature",
      "properties": {
        "fid_cadastro": 99,
        "codigo": "OC-TIC-LO-001-RE-007-O",
        "selagem": "LO-001-007",
        "status": "Concluído",
        "classificacao_dwg": "OCUPAÇÕES CADASTRADAS",
        "dwg_layer": "OCUPAÇÕES CADASTRADAS",
        "dwg_handle": "4B84",
        "municipio": "Louveira",
        "origem": "ProjetoTICGeral15-09-26.dwg",
        "area_m2": 401.07,
        "perimetro_m": 96.82
      },
      "geometry": {
        "type": "Polygon",
        "coordinates": [
          [
            [
              -46.94188972695964,
              -23.103335434822686,
              0.0
            ],
            [
              -46.94189151824487,
              -23.1034334908706,
              0.0
            ],
            [
              -46.941525096450306,
              -23.10333660154217,
              0.0
            ],
            [
              -46.94155511009761,
              -23.103240700793236,
              0.0
            ],
            [
              -46.94188972695964,
              -23.103335434822686,
              0.0
            ]
          ]
        ]
      }
    },
    {
      "type": "Feature",
      "properties": {
        "fid_cadastro": 100,
        "codigo": "OC-TIC-LO-001-RE-008-O",
        "selagem": "LO-001-008",
        "status": "Concluído",
        "classificacao_dwg": "OCUPAÇÕES CADASTRADAS",
        "dwg_layer": "OCUPAÇÕES CADASTRADAS",
        "dwg_handle": "4B8D",
        "municipio": "Louveira",
        "origem": "ProjetoTICGeral15-09-26.dwg",
        "area_m2": 425.91,
        "perimetro_m": 104.7
      },
      "geometry": {
        "type": "Polygon",
        "coordinates": [
          [
            [
              -46.94189151824487,
              -23.1034334908706,
              0.0
            ],
            [
              -46.94190843545572,
              -23.103534230436104,
              0.0
            ],
            [
              -46.941499332410054,
              -23.103425880253845,
              0.0
            ],
            [
              -46.94149435663731,
              -23.103424562421903,
              0.0
            ],
            [
              -46.941525096450306,
              -23.10333660154217,
              0.0
            ],
            [
              -46.94189151824487,
              -23.1034334908706,
              0.0
            ]
          ]
        ]
      }
    },
    {
      "type": "Feature",
      "properties": {
        "fid_cadastro": 101,
        "codigo": "OC-TIC-LO-001-RE-009-O",
        "selagem": "LO-001-009",
        "status": "Concluído",
        "classificacao_dwg": "OCUPAÇÕES CADASTRADAS",
        "dwg_layer": "OCUPAÇÕES CADASTRADAS",
        "dwg_handle": "4B96",
        "municipio": "Louveira",
        "origem": "ProjetoTICGeral15-09-26.dwg",
        "area_m2": 507.44,
        "perimetro_m": 112.11
      },
      "geometry": {
        "type": "Polygon",
        "coordinates": [
          [
            [
              -46.94190843545572,
              -23.103534230436104,
              0.0
            ],
            [
              -46.94189782067681,
              -23.103633176261216,
              0.0
            ],
            [
              -46.941467249315,
              -23.103529168843803,
              0.0
            ],
            [
              -46.941499332410054,
              -23.103425880253845,
              0.0
            ],
            [
              -46.94190843545572,
              -23.103534230436104,
              0.0
            ]
          ]
        ]
      }
    },
    {
      "type": "Feature",
      "properties": {
        "fid_cadastro": 102,
        "codigo": "OC-TIC-LO-001-RE-010-O",
        "selagem": "LO-001-010",
        "status": "Concluído",
        "classificacao_dwg": "OCUPAÇÕES CADASTRADAS",
        "dwg_layer": "OCUPAÇÕES CADASTRADAS",
        "dwg_handle": "4BA0",
        "municipio": "Louveira",
        "origem": "ProjetoTICGeral15-09-26.dwg",
        "area_m2": 567.27,
        "perimetro_m": 113.76
      },
      "geometry": {
        "type": "Polygon",
        "coordinates": [
          [
            [
              -46.94189782067681,
              -23.103633176261216,
              0.0
            ],
            [
              -46.94190011790474,
              -23.103690339060282,
              0.0
            ],
            [
              -46.94160586810002,
              -23.103715010605328,
              0.0
            ],
            [
              -46.94160290939393,
              -23.103715197591505,
              0.0
            ],
            [
              -46.941604321826254,
              -23.1037003116522,
              0.0
            ],
            [
              -46.94145366653128,
              -23.103684890786703,
              0.0
            ],
            [
              -46.94149522940106,
              -23.10353594435334,
              0.0
            ],
            [
              -46.94189782067681,
              -23.103633176261216,
              0.0
            ]
          ]
        ]
      }
    },
    {
      "type": "Feature",
      "properties": {
        "fid_cadastro": 103,
        "codigo": "OC-TIC-LO-001-RE-011-O",
        "selagem": "LO-001-011",
        "status": "Concluído",
        "classificacao_dwg": "OCUPAÇÕES CADASTRADAS",
        "dwg_layer": "OCUPAÇÕES CADASTRADAS",
        "dwg_handle": "4BAC",
        "municipio": "Louveira",
        "origem": "ProjetoTICGeral15-09-26.dwg",
        "area_m2": 300.61,
        "perimetro_m": 69.84
      },
      "geometry": {
        "type": "Polygon",
        "coordinates": [
          [
            [
              -46.94145366653128,
              -23.103684890786703,
              0.0
            ],
            [
              -46.94144215824865,
              -23.1038606459765,
              0.0
            ],
            [
              -46.94159656921592,
              -23.10386829716891,
              0.0
            ],
            [
              -46.94160586810002,
              -23.103715010605328,
              0.0
            ],
            [
              -46.94160290939393,
              -23.103715197591505,
              0.0
            ],
            [
              -46.941604321826254,
              -23.1037003116522,
              0.0
            ],
            [
              -46.94145366653128,
              -23.103684890786703,
              0.0
            ]
          ]
        ]
      }
    },
    {
      "type": "Feature",
      "properties": {
        "fid_cadastro": 104,
        "codigo": "OC-TIC-LO-001-RE-012-O",
        "selagem": "LO-001-012",
        "status": "A cadastrar",
        "classificacao_dwg": "OCUPAÇÕES NÃO CADASTRADAS",
        "dwg_layer": "OCUPAÇÕES NÃO CADASTRADAS",
        "dwg_handle": "4BB5",
        "municipio": "Louveira",
        "origem": "ProjetoTICGeral15-09-26.dwg",
        "area_m2": 231.91,
        "perimetro_m": 60.97
      },
      "geometry": {
        "type": "Polygon",
        "coordinates": [
          [
            [
              -46.94159656921592,
              -23.10386829716891,
              0.0
            ],
            [
              -46.94158675027107,
              -23.104002198166505,
              0.0
            ],
            [
              -46.941446350497706,
              -23.10400392576933,
              0.0
            ],
            [
              -46.94144215824865,
              -23.1038606459765,
              0.0
            ],
            [
              -46.94159656921592,
              -23.10386829716891,
              0.0
            ]
          ]
        ]
      }
    },
    {
      "type": "Feature",
      "properties": {
        "fid_cadastro": 109,
        "codigo": "OC-TIC-VA-004-RE-004 L",
        "selagem": "VA-004-004",
        "status": "Concluído",
        "classificacao_dwg": "OCUPAÇÕES CADASTRADAS",
        "dwg_layer": "OCUPAÇÕES CADASTRADAS",
        "dwg_handle": "4C3B",
        "municipio": "Valinhos",
        "origem": "ProjetoTICGeral15-09-26.dwg",
        "area_m2": 460.94,
        "perimetro_m": 88.76
      },
      "geometry": {
        "type": "Polygon",
        "coordinates": [
          [
            [
              -46.99392341383423,
              -22.968090445782913,
              0.0
            ],
            [
              -46.99388807824094,
              -22.96807688563916,
              0.0
            ],
            [
              -46.99377372562785,
              -22.968027644606448,
              0.0
            ],
            [
              -46.99387719876969,
              -22.96777657689073,
              0.0
            ],
            [
              -46.993989362640214,
              -22.967843151980336,
              0.0
            ],
            [
              -46.99397341752676,
              -22.967975129568057,
              0.0
            ],
            [
              -46.99392341383423,
              -22.968090445782913,
              0.0
            ]
          ]
        ]
      }
    },
    {
      "type": "Feature",
      "properties": {
        "fid_cadastro": 106,
        "codigo": "OC-TIC-VA-004-RE-001-L",
        "selagem": "VA-004-001",
        "status": "Concluído",
        "classificacao_dwg": "OCUPAÇÕES CADASTRADAS",
        "dwg_layer": "OCUPAÇÕES CADASTRADAS",
        "dwg_handle": "4C3E",
        "municipio": "Valinhos",
        "origem": "ProjetoTICGeral15-09-26.dwg",
        "area_m2": 247.31,
        "perimetro_m": 64.08
      },
      "geometry": {
        "type": "Polygon",
        "coordinates": [
          [
            [
              -46.99375583255787,
              -22.968379291083796,
              0.0
            ],
            [
              -46.993684790766785,
              -22.968539893584936,
              0.0
            ],
            [
              -46.99357028286055,
              -22.968494447720612,
              0.0
            ],
            [
              -46.993636488565464,
              -22.968335189291633,
              0.0
            ],
            [
              -46.99375583255787,
              -22.968379291083796,
              0.0
            ]
          ]
        ]
      }
    },
    {
      "type": "Feature",
      "properties": {
        "fid_cadastro": 107,
        "codigo": "OC-TIC-VA-004-RE-002 L",
        "selagem": "VA-004-002",
        "status": "Recusa",
        "classificacao_dwg": "RECUSA",
        "dwg_layer": "RECUSA",
        "dwg_handle": "4C3D",
        "municipio": "Valinhos",
        "origem": "ProjetoTICGeral15-09-26.dwg",
        "area_m2": 186.79,
        "perimetro_m": 54.72
      },
      "geometry": {
        "type": "Polygon",
        "coordinates": [
          [
            [
              -46.993807260461274,
              -22.968260076206434,
              0.0
            ],
            [
              -46.99375583255787,
              -22.968379291083796,
              0.0
            ],
            [
              -46.993636488565464,
              -22.968335189291633,
              0.0
            ],
            [
              -46.993689912854364,
              -22.96821570000068,
              0.0
            ],
            [
              -46.993807260461274,
              -22.968260076206434,
              0.0
            ]
          ]
        ]
      }
    },
    {
      "type": "Feature",
      "properties": {
        "fid_cadastro": 108,
        "codigo": "OC-TIC-VA-004-RE-003 L",
        "selagem": "VA-004-003",
        "status": "Recusa",
        "classificacao_dwg": "RECUSA",
        "dwg_layer": "RECUSA",
        "dwg_handle": "4C40",
        "municipio": "Valinhos",
        "origem": "ProjetoTICGeral15-09-26.dwg",
        "area_m2": 288.04,
        "perimetro_m": 70.38
      },
      "geometry": {
        "type": "Polygon",
        "coordinates": [
          [
            [
              -46.99388807824094,
              -22.96807688563916,
              0.0
            ],
            [
              -46.993807260461274,
              -22.968260076206434,
              0.0
            ],
            [
              -46.993689912854364,
              -22.96821570000068,
              0.0
            ],
            [
              -46.99377372562785,
              -22.968027644606448,
              0.0
            ],
            [
              -46.99388807824094,
              -22.96807688563916,
              0.0
            ]
          ]
        ]
      }
    },
    {
      "type": "Feature",
      "properties": {
        "fid_cadastro": 110,
        "codigo": "OC-TIC-LO-003-RE-001 O",
        "selagem": "",
        "status": "Concluído",
        "classificacao_dwg": "OCUPAÇÕES CADASTRADAS",
        "dwg_layer": "OCUPAÇÕES CADASTRADAS",
        "dwg_handle": "4C5C",
        "municipio": null,
        "origem": "ProjetoTICGeral15-09-26.dwg",
        "area_m2": 144.85,
        "perimetro_m": 54.71
      },
      "geometry": {
        "type": "Polygon",
        "coordinates": [
          [
            [
              -46.947641503040394,
              -23.09402433370565,
              0.0
            ],
            [
              -46.947574971792335,
              -23.09402334747544,
              0.0
            ],
            [
              -46.94757589248986,
              -23.094087205310366,
              0.0
            ],
            [
              -46.94753673527922,
              -23.094087517786612,
              0.0
            ],
            [
              -46.94753735015226,
              -23.09411642420879,
              0.0
            ],
            [
              -46.94752856441923,
              -23.09411635011122,
              0.0
            ],
            [
              -46.94752860089386,
              -23.094167049566227,
              0.0
            ],
            [
              -46.94763949058417,
              -23.094166312596798,
              0.0
            ],
            [
              -46.947641503040394,
              -23.09402433370565,
              0.0
            ]
          ]
        ]
      }
    },
    {
      "type": "Feature",
      "properties": {
        "fid_cadastro": 111,
        "codigo": "OC-TIC-LO-003-RE-002 O",
        "selagem": "",
        "status": "A cadastrar",
        "classificacao_dwg": "OCUPAÇÕES NÃO CADASTRADAS",
        "dwg_layer": "OCUPAÇÕES NÃO CADASTRADAS",
        "dwg_handle": "4C5D",
        "municipio": null,
        "origem": "ProjetoTICGeral15-09-26.dwg",
        "area_m2": 115.74,
        "perimetro_m": 44.9
      },
      "geometry": {
        "type": "Polygon",
        "coordinates": [
          [
            [
              -46.94757484587822,
              -23.09401461429438,
              0.0
            ],
            [
              -46.947436222999876,
              -23.094016324727978,
              0.0
            ],
            [
              -46.9474340172074,
              -23.094089554960597,
              0.0
            ],
            [
              -46.94754200911678,
              -23.09408741319051,
              0.0
            ],
            [
              -46.94757589248986,
              -23.094087205310366,
              0.0
            ],
            [
              -46.94757484587822,
              -23.09401461429438,
              0.0
            ]
          ]
        ]
      }
    },
    {
      "type": "Feature",
      "properties": {
        "fid_cadastro": 112,
        "codigo": "OC-TIC-LO-003-RE-003 O",
        "selagem": "",
        "status": "A cadastrar",
        "classificacao_dwg": "OCUPAÇÕES NÃO CADASTRADAS",
        "dwg_layer": "OCUPAÇÕES NÃO CADASTRADAS",
        "dwg_handle": "4E4C",
        "municipio": null,
        "origem": "ProjetoTICGeral15-09-26.dwg",
        "area_m2": 121.04,
        "perimetro_m": 54.62
      },
      "geometry": {
        "type": "Polygon",
        "coordinates": [
          [
            [
              -46.947541916759846,
              -23.09377142156596,
              0.0
            ],
            [
              -46.947541573812934,
              -23.09378056866664,
              0.0
            ],
            [
              -46.94753779418657,
              -23.093777445344745,
              0.0
            ],
            [
              -46.94753377428869,
              -23.093781670680535,
              0.0
            ],
            [
              -46.94752145270663,
              -23.09385642182796,
              0.0
            ],
            [
              -46.94752689288572,
              -23.09385783144651,
              0.0
            ],
            [
              -46.94751822021561,
              -23.093920837523633,
              0.0
            ],
            [
              -46.94748880864681,
              -23.093917033410943,
              0.0
            ],
            [
              -46.94748654015607,
              -23.093946103681617,
              0.0
            ],
            [
              -46.94744260998469,
              -23.093942509748143,
              0.0
            ],
            [
              -46.94744560785017,
              -23.093911953385515,
              0.0
            ],
            [
              -46.947471780293625,
              -23.09380521070511,
              0.0
            ],
            [
              -46.947494332408,
              -23.093763077064818,
              0.0
            ],
            [
              -46.94752413953896,
              -23.093768304113535,
              0.0
            ],
            [
              -46.947541916759846,
              -23.09377142156596,
              0.0
            ]
          ]
        ]
      }
    },
    {
      "type": "Feature",
      "properties": {
        "fid_cadastro": 113,
        "codigo": "OC-TIC-LO-003-RE-004 O",
        "selagem": "",
        "status": "Concluído",
        "classificacao_dwg": "OCUPAÇÕES CADASTRADAS",
        "dwg_layer": "OCUPAÇÕES CADASTRADAS",
        "dwg_handle": "4E55",
        "municipio": null,
        "origem": "ProjetoTICGeral15-09-26.dwg (geometria compartilhada no DWG)",
        "area_m2": 268.3,
        "perimetro_m": 79.33
      },
      "geometry": {
        "type": "Polygon",
        "coordinates": [
          [
            [
              -46.9476202622286,
              -23.093851673921147,
              0.0
            ],
            [
              -46.9476043399994,
              -23.09383813486312,
              0.0
            ],
            [
              -46.94757166811966,
              -23.09386740842437,
              0.0
            ],
            [
              -46.94752689288572,
              -23.09385783144651,
              0.0
            ],
            [
              -46.94752145270663,
              -23.09385642182796,
              0.0
            ],
            [
              -46.94753377428869,
              -23.093781670680535,
              0.0
            ],
            [
              -46.94753779418657,
              -23.093777445344745,
              0.0
            ],
            [
              -46.947541573812934,
              -23.09378056866664,
              0.0
            ],
            [
              -46.947541916759846,
              -23.09377142156596,
              0.0
            ],
            [
              -46.94752413953896,
              -23.093768304113535,
              0.0
            ],
            [
              -46.947544457843684,
              -23.09373835819538,
              0.0
            ],
            [
              -46.947499857518466,
              -23.093724534879314,
              0.0
            ],
            [
              -46.94751272123872,
              -23.093698066772138,
              0.0
            ],
            [
              -46.947508040598784,
              -23.093696049604922,
              0.0
            ],
            [
              -46.9475225159008,
              -23.093661195705288,
              0.0
            ],
            [
              -46.94754258023445,
              -23.09366772487717,
              0.0
            ],
            [
              -46.94754521451226,
              -23.09366604563689,
              0.0
            ],
            [
              -46.94755286755865,
              -23.09367368567581,
              0.0
            ],
            [
              -46.947580725089225,
              -23.093649501895662,
              0.0
            ],
            [
              -46.94760004288967,
              -23.093670565117538,
              0.0
            ],
            [
              -46.94766820287902,
              -23.09374488349142,
              0.0
            ],
            [
              -46.947686054105525,
              -23.09376434759064,
              0.0
            ],
            [
              -46.94764722143283,
              -23.09379982446293,
              0.0
            ],
            [
              -46.947662848093564,
              -23.093818652114646,
              0.0
            ],
            [
              -46.9476202622286,
              -23.093851673921147,
              0.0
            ]
          ]
        ]
      }
    },
    {
      "type": "Feature",
      "properties": {
        "fid_cadastro": 114,
        "codigo": "OC-TIC-LO-003-RE-006 O",
        "selagem": "",
        "status": "Concluído",
        "classificacao_dwg": "OCUPAÇÕES CADASTRADAS",
        "dwg_layer": "OCUPAÇÕES CADASTRADAS",
        "dwg_handle": "4E52",
        "municipio": null,
        "origem": "ProjetoTICGeral15-09-26.dwg",
        "area_m2": 234.61,
        "perimetro_m": 72.84
      },
      "geometry": {
        "type": "Polygon",
        "coordinates": [
          [
            [
              -46.947742753539714,
              -23.0937183253541,
              0.0
            ],
            [
              -46.94759776369342,
              -23.0935248900253,
              0.0
            ],
            [
              -46.9475903565691,
              -23.093524549877124,
              0.0
            ],
            [
              -46.94755530427604,
              -23.093627615912666,
              0.0
            ],
            [
              -46.947580725089225,
              -23.093649501895662,
              0.0
            ],
            [
              -46.94766820287902,
              -23.09374488349142,
              0.0
            ],
            [
              -46.947686054105525,
              -23.09376434759064,
              0.0
            ],
            [
              -46.94770709789697,
              -23.09378501228736,
              0.0
            ],
            [
              -46.94776186585829,
              -23.093743427363883,
              0.0
            ],
            [
              -46.947742753539714,
              -23.0937183253541,
              0.0
            ]
          ]
        ]
      }
    },
    {
      "type": "Feature",
      "properties": {
        "fid_cadastro": 115,
        "codigo": "OC-TIC-LO-003-RE-007 O",
        "selagem": "",
        "status": "Concluído",
        "classificacao_dwg": "OCUPAÇÕES CADASTRADAS",
        "dwg_layer": "OCUPAÇÕES CADASTRADAS",
        "dwg_handle": "4E51",
        "municipio": null,
        "origem": "ProjetoTICGeral15-09-26.dwg",
        "area_m2": 187.48,
        "perimetro_m": 73.62
      },
      "geometry": {
        "type": "Polygon",
        "coordinates": [
          [
            [
              -46.94761425099808,
              -23.09344806423123,
              0.0
            ],
            [
              -46.947592029913494,
              -23.093517240401358,
              0.0
            ],
            [
              -46.94759776369342,
              -23.0935248900253,
              0.0
            ],
            [
              -46.947742753539714,
              -23.0937183253541,
              0.0
            ],
            [
              -46.94779423162734,
              -23.09368538101521,
              0.0
            ],
            [
              -46.94761425099808,
              -23.09344806423123,
              0.0
            ]
          ]
        ]
      }
    },
    {
      "type": "Feature",
      "properties": {
        "fid_cadastro": 116,
        "codigo": "OC-TIC-LO-003-RE-008 O",
        "selagem": "",
        "status": "Concluído",
        "classificacao_dwg": "OCUPAÇÕES CADASTRADAS",
        "dwg_layer": "OCUPAÇÕES CADASTRADAS",
        "dwg_handle": "4E50",
        "municipio": null,
        "origem": "ProjetoTICGeral15-09-26.dwg",
        "area_m2": 175.4,
        "perimetro_m": 79.79
      },
      "geometry": {
        "type": "Polygon",
        "coordinates": [
          [
            [
              -46.94784932974844,
              -23.09366909769581,
              0.0
            ],
            [
              -46.94780458784887,
              -23.093699036368626,
              0.0
            ],
            [
              -46.94779423162734,
              -23.09368538101521,
              0.0
            ],
            [
              -46.94761425099808,
              -23.09344806423123,
              0.0
            ],
            [
              -46.947635873594024,
              -23.09341433293579,
              0.0
            ],
            [
              -46.94764247049683,
              -23.093416230992027,
              0.0
            ],
            [
              -46.94784932974844,
              -23.09366909769581,
              0.0
            ]
          ]
        ]
      }
    },
    {
      "type": "Feature",
      "properties": {
        "fid_cadastro": 117,
        "codigo": "OC-TIC-LO-003-RE-009 O",
        "selagem": "",
        "status": "Concluído",
        "classificacao_dwg": "OCUPAÇÕES CADASTRADAS",
        "dwg_layer": "OCUPAÇÕES CADASTRADAS",
        "dwg_handle": "4ECF",
        "municipio": null,
        "origem": "ProjetoTICGeral15-09-26.dwg",
        "area_m2": 55.91,
        "perimetro_m": 29.65
      },
      "geometry": {
        "type": "Polygon",
        "coordinates": [
          [
            [
              -46.94774838186177,
              -23.09339698443426,
              0.0
            ],
            [
              -46.94773249323415,
              -23.093450750846838,
              0.0
            ],
            [
              -46.947668173108966,
              -23.093435419735084,
              0.0
            ],
            [
              -46.947689710625184,
              -23.093358873297092,
              0.0
            ],
            [
              -46.94771365298463,
              -23.093364235493343,
              0.0
            ],
            [
              -46.94771335636239,
              -23.093365595549905,
              0.0
            ],
            [
              -46.9477266550273,
              -23.09336897955161,
              0.0
            ],
            [
              -46.94774838186177,
              -23.09339698443426,
              0.0
            ]
          ]
        ]
      }
    },
    {
      "type": "Feature",
      "properties": {
        "fid_cadastro": 118,
        "codigo": "OC-TIC-LO-003-RE-010 O",
        "selagem": "",
        "status": "A cadastrar",
        "classificacao_dwg": "OCUPAÇÕES NÃO CADASTRADAS",
        "dwg_layer": "OCUPAÇÕES NÃO CADASTRADAS",
        "dwg_handle": "4E4E",
        "municipio": null,
        "origem": "ProjetoTICGeral15-09-26.dwg",
        "area_m2": 1055.45,
        "perimetro_m": 170.01
      },
      "geometry": {
        "type": "Polygon",
        "coordinates": [
          [
            [
              -46.94804058867145,
              -23.09313841587431,
              0.0
            ],
            [
              -46.94792505193556,
              -23.09333573671784,
              0.0
            ],
            [
              -46.94807238853146,
              -23.09350708927525,
              0.0
            ],
            [
              -46.94803225920109,
              -23.093536939696037,
              0.0
            ],
            [
              -46.947918159461736,
              -23.093394422776857,
              0.0
            ],
            [
              -46.9478105986209,
              -23.09347717886687,
              0.0
            ],
            [
              -46.94768915153762,
              -23.093320639254856,
              0.0
            ],
            [
              -46.94782035618646,
              -23.0930308596044,
              0.0
            ],
            [
              -46.94804058867145,
              -23.09313841587431,
              0.0
            ]
          ]
        ]
      }
    },
    {
      "type": "Feature",
      "properties": {
        "fid_cadastro": 119,
        "codigo": "OC-TIC-LO-003-RE-011 O",
        "selagem": "",
        "status": "A cadastrar",
        "classificacao_dwg": "OCUPAÇÕES NÃO CADASTRADAS",
        "dwg_layer": "OCUPAÇÕES NÃO CADASTRADAS",
        "dwg_handle": "4E96",
        "municipio": null,
        "origem": "ProjetoTICGeral15-09-26.dwg",
        "area_m2": 89.37,
        "perimetro_m": 51.13
      },
      "geometry": {
        "type": "Polygon",
        "coordinates": [
          [
            [
              -46.9477812034462,
              -23.093117332792986,
              0.0
            ],
            [
              -46.94774421173449,
              -23.093105008297083,
              0.0
            ],
            [
              -46.947661500523964,
              -23.09328036197538,
              0.0
            ],
            [
              -46.94769985704165,
              -23.093296995038166,
              0.0
            ],
            [
              -46.9477812034462,
              -23.093117332792986,
              0.0
            ]
          ]
        ]
      }
    },
    {
      "type": "Feature",
      "properties": {
        "fid_cadastro": 120,
        "codigo": "OC-TIC-LO-003-RE-005 O",
        "selagem": "",
        "status": "Concluído",
        "classificacao_dwg": "OCUPAÇÕES CADASTRADAS",
        "dwg_layer": "OCUPAÇÕES CADASTRADAS",
        "dwg_handle": "4E55",
        "municipio": null,
        "origem": "ProjetoTICGeral15-09-26.dwg (geometria compartilhada no DWG)",
        "area_m2": 268.3,
        "perimetro_m": 79.33
      },
      "geometry": {
        "type": "Polygon",
        "coordinates": [
          [
            [
              -46.9476202622286,
              -23.093851673921147,
              0.0
            ],
            [
              -46.9476043399994,
              -23.09383813486312,
              0.0
            ],
            [
              -46.94757166811966,
              -23.09386740842437,
              0.0
            ],
            [
              -46.94752689288572,
              -23.09385783144651,
              0.0
            ],
            [
              -46.94752145270663,
              -23.09385642182796,
              0.0
            ],
            [
              -46.94753377428869,
              -23.093781670680535,
              0.0
            ],
            [
              -46.94753779418657,
              -23.093777445344745,
              0.0
            ],
            [
              -46.947541573812934,
              -23.09378056866664,
              0.0
            ],
            [
              -46.947541916759846,
              -23.09377142156596,
              0.0
            ],
            [
              -46.94752413953896,
              -23.093768304113535,
              0.0
            ],
            [
              -46.947544457843684,
              -23.09373835819538,
              0.0
            ],
            [
              -46.947499857518466,
              -23.093724534879314,
              0.0
            ],
            [
              -46.94751272123872,
              -23.093698066772138,
              0.0
            ],
            [
              -46.947508040598784,
              -23.093696049604922,
              0.0
            ],
            [
              -46.9475225159008,
              -23.093661195705288,
              0.0
            ],
            [
              -46.94754258023445,
              -23.09366772487717,
              0.0
            ],
            [
              -46.94754521451226,
              -23.09366604563689,
              0.0
            ],
            [
              -46.94755286755865,
              -23.09367368567581,
              0.0
            ],
            [
              -46.947580725089225,
              -23.093649501895662,
              0.0
            ],
            [
              -46.94760004288967,
              -23.093670565117538,
              0.0
            ],
            [
              -46.94766820287902,
              -23.09374488349142,
              0.0
            ],
            [
              -46.947686054105525,
              -23.09376434759064,
              0.0
            ],
            [
              -46.94764722143283,
              -23.09379982446293,
              0.0
            ],
            [
              -46.947662848093564,
              -23.093818652114646,
              0.0
            ],
            [
              -46.9476202622286,
              -23.093851673921147,
              0.0
            ]
          ]
        ]
      }
    },
    {
      "type": "Feature",
      "properties": {
        "fid_cadastro": 121,
        "codigo": "OC-TIC-LO-003-RE-012 O",
        "selagem": "",
        "status": "Concluído",
        "classificacao_dwg": "OCUPAÇÕES CADASTRADAS",
        "dwg_layer": "OCUPAÇÕES CADASTRADAS",
        "dwg_handle": "4E55",
        "municipio": null,
        "origem": "ProjetoTICGeral15-09-26.dwg (geometria compartilhada no DWG)",
        "area_m2": 268.3,
        "perimetro_m": 79.33
      },
      "geometry": {
        "type": "Polygon",
        "coordinates": [
          [
            [
              -46.9476202622286,
              -23.093851673921147,
              0.0
            ],
            [
              -46.9476043399994,
              -23.09383813486312,
              0.0
            ],
            [
              -46.94757166811966,
              -23.09386740842437,
              0.0
            ],
            [
              -46.94752689288572,
              -23.09385783144651,
              0.0
            ],
            [
              -46.94752145270663,
              -23.09385642182796,
              0.0
            ],
            [
              -46.94753377428869,
              -23.093781670680535,
              0.0
            ],
            [
              -46.94753779418657,
              -23.093777445344745,
              0.0
            ],
            [
              -46.947541573812934,
              -23.09378056866664,
              0.0
            ],
            [
              -46.947541916759846,
              -23.09377142156596,
              0.0
            ],
            [
              -46.94752413953896,
              -23.093768304113535,
              0.0
            ],
            [
              -46.947544457843684,
              -23.09373835819538,
              0.0
            ],
            [
              -46.947499857518466,
              -23.093724534879314,
              0.0
            ],
            [
              -46.94751272123872,
              -23.093698066772138,
              0.0
            ],
            [
              -46.947508040598784,
              -23.093696049604922,
              0.0
            ],
            [
              -46.9475225159008,
              -23.093661195705288,
              0.0
            ],
            [
              -46.94754258023445,
              -23.09366772487717,
              0.0
            ],
            [
              -46.94754521451226,
              -23.09366604563689,
              0.0
            ],
            [
              -46.94755286755865,
              -23.09367368567581,
              0.0
            ],
            [
              -46.947580725089225,
              -23.093649501895662,
              0.0
            ],
            [
              -46.94760004288967,
              -23.093670565117538,
              0.0
            ],
            [
              -46.94766820287902,
              -23.09374488349142,
              0.0
            ],
            [
              -46.947686054105525,
              -23.09376434759064,
              0.0
            ],
            [
              -46.94764722143283,
              -23.09379982446293,
              0.0
            ],
            [
              -46.947662848093564,
              -23.093818652114646,
              0.0
            ],
            [
              -46.9476202622286,
              -23.093851673921147,
              0.0
            ]
          ]
        ]
      }
    }
  ]
}
