{
  "type": "FeatureCollection",
  "name": "KM — faixaelinha.dxf",
  "features": [
    {
      "type": "Feature",
      "properties": {
        "label": "64+140 m",
        "origem": "faixaelinha.dxf",
        "bloco": "BLK3095",
        "km_m": "64+140 m"
      },
      "geometry": {
        "type": "Point",
        "coordinates": [
          -46.89831975637589,
          -23.171879140615783
        ]
      }
    },
    {
      "type": "Feature",
      "properties": {
        "label": "64+160 m",
        "origem": "faixaelinha.dxf",
        "bloco": "BLK3096",
        "km_m": "64+160 m"
      },
      "geometry": {
        "type": "Point",
        "coordinates": [
          -46.89842615466867,
          -23.17172774667194
        ]
      }
    },
    {
      "type": "Feature",
      "properties": {
        "label": "64+180 m",
        "origem": "faixaelinha.dxf",
        "bloco": "BLK3097",
        "km_m": "64+180 m"
      },
      "geometry": {
        "type": "Point",
        "coordinates": [
          -46.89852947882885,
          -23.171574489525664
        ]
      }
    },
    {
      "type": "Feature",
      "properties": {
        "label": "64+200 m",
        "origem": "faixaelinha.dxf",
        "bloco": "BLK3098",
        "km_m": "64+200 m"
      },
      "geometry": {
        "type": "Point",
        "coordinates": [
          -46.89863280276183,
          -23.171421232324313
        ]
      }
    },
    {
      "type": "Feature",
      "properties": {
        "label": "64+220 m",
        "origem": "faixaelinha.dxf",
        "bloco": "BLK3099",
        "km_m": "64+220 m"
      },
      "geometry": {
        "type": "Point",
        "coordinates": [
          -46.898736126467604,
          -23.171267975067842
        ]
      }
    },
    {
      "type": "Feature",
      "properties": {
        "label": "64+240 m",
        "origem": "faixaelinha.dxf",
        "bloco": "BLK3100",
        "km_m": "64+240 m"
      },
      "geometry": {
        "type": "Point",
        "coordinates": [
          -46.89883944994618,
          -23.171114717756282
        ]
      }
    },
    {
      "type": "Feature",
      "properties": {
        "label": "64+260 m",
        "origem": "faixaelinha.dxf",
        "bloco": "BLK3101",
        "km_m": "64+260 m"
      },
      "geometry": {
        "type": "Point",
        "coordinates": [
          -46.89894493187021,
          -23.170962734808885
        ]
      }
    },
    {
      "type": "Feature",
      "properties": {
        "label": "64+280 m",
        "origem": "faixaelinha.dxf",
        "bloco": "BLK3102",
        "km_m": "64+280 m"
      },
      "geometry": {
        "type": "Point",
        "coordinates": [
          -46.89905184025438,
          -23.17081159408131
        ]
      }
    },
    {
      "type": "Feature",
      "properties": {
        "label": "64+300 m",
        "origem": "faixaelinha.dxf",
        "bloco": "BLK3103",
        "km_m": "64+300 m"
      },
      "geometry": {
        "type": "Point",
        "coordinates": [
          -46.89915874840579,
          -23.170660453294268
        ]
      }
    },
    {
      "type": "Feature",
      "properties": {
        "label": "64+320 m",
        "origem": "faixaelinha.dxf",
        "bloco": "BLK3104",
        "km_m": "64+320 m"
      },
      "geometry": {
        "type": "Point",
        "coordinates": [
          -46.899265656324474,
          -23.170509312447727
        ]
      }
    },
    {
      "type": "Feature",
      "properties": {
        "label": "64+340 m",
        "origem": "faixaelinha.dxf",
        "bloco": "BLK3105",
        "km_m": "64+340 m"
      },
      "geometry": {
        "type": "Point",
        "coordinates": [
          -46.89937256401041,
          -23.17035817154171
        ]
      }
    },
    {
      "type": "Feature",
      "properties": {
        "label": "64+360 m",
        "origem": "faixaelinha.dxf",
        "bloco": "BLK3106",
        "km_m": "64+360 m"
      },
      "geometry": {
        "type": "Point",
        "coordinates": [
          -46.899480679918376,
          -23.17020777091516
        ]
      }
    },
    {
      "type": "Feature",
      "properties": {
        "label": "64+380 m",
        "origem": "faixaelinha.dxf",
        "bloco": "BLK3107",
        "km_m": "64+380 m"
      },
      "geometry": {
        "type": "Point",
        "coordinates": [
          -46.899589553555856,
          -23.170057834581026
        ]
      }
    },
    {
      "type": "Feature",
      "properties": {
        "label": "64+400 m",
        "origem": "faixaelinha.dxf",
        "bloco": "BLK3108",
        "km_m": "64+400 m"
      },
      "geometry": {
        "type": "Point",
        "coordinates": [
          -46.89969842695771,
          -23.169907898184885
        ]
      }
    },
    {
      "type": "Feature",
      "properties": {
        "label": "64+420 m",
        "origem": "faixaelinha.dxf",
        "bloco": "BLK3109",
        "km_m": "64+420 m"
      },
      "geometry": {
        "type": "Point",
        "coordinates": [
          -46.89980730012397,
          -23.16975796172683
        ]
      }
    },
    {
      "type": "Feature",
      "properties": {
        "label": "64+440 m",
        "origem": "faixaelinha.dxf",
        "bloco": "BLK3110",
        "km_m": "64+440 m"
      },
      "geometry": {
        "type": "Point",
        "coordinates": [
          -46.899916173054606,
          -23.16960802520679
        ]
      }
    },
    {
      "type": "Feature",
      "properties": {
        "label": "64+460 m",
        "origem": "faixaelinha.dxf",
        "bloco": "BLK3111",
        "km_m": "64+460 m"
      },
      "geometry": {
        "type": "Point",
        "coordinates": [
          -46.9000246079719,
          -23.16945781810965
        ]
      }
    },
    {
      "type": "Feature",
      "properties": {
        "label": "64+480 m",
        "origem": "faixaelinha.dxf",
        "bloco": "BLK3112",
        "km_m": "64+480 m"
      },
      "geometry": {
        "type": "Point",
        "coordinates": [
          -46.90013278091396,
          -23.169307449214468
        ]
      }
    },
    {
      "type": "Feature",
      "properties": {
        "label": "64+500 m",
        "origem": "faixaelinha.dxf",
        "bloco": "BLK3113",
        "km_m": "64+500 m"
      },
      "geometry": {
        "type": "Point",
        "coordinates": [
          -46.90024095362142,
          -23.169157080258245
        ]
      }
    },
    {
      "type": "Feature",
      "properties": {
        "label": "64+520 m",
        "origem": "faixaelinha.dxf",
        "bloco": "BLK3114",
        "km_m": "64+520 m"
      },
      "geometry": {
        "type": "Point",
        "coordinates": [
          -46.9003491260943,
          -23.169006711240932
        ]
      }
    },
    {
      "type": "Feature",
      "properties": {
        "label": "64+540 m",
        "origem": "faixaelinha.dxf",
        "bloco": "BLK3115",
        "km_m": "64+540 m"
      },
      "geometry": {
        "type": "Point",
        "coordinates": [
          -46.9004572983326,
          -23.168856342162595
        ]
      }
    },
    {
      "type": "Feature",
      "properties": {
        "label": "64+560 m",
        "origem": "faixaelinha.dxf",
        "bloco": "BLK3116",
        "km_m": "64+560 m"
      },
      "geometry": {
        "type": "Point",
        "coordinates": [
          -46.90056474201514,
          -23.168705528500528
        ]
      }
    },
    {
      "type": "Feature",
      "properties": {
        "label": "64+580 m",
        "origem": "faixaelinha.dxf",
        "bloco": "BLK3117",
        "km_m": "64+580 m"
      },
      "geometry": {
        "type": "Point",
        "coordinates": [
          -46.900671767401725,
          -23.16855445961869
        ]
      }
    },
    {
      "type": "Feature",
      "properties": {
        "label": "64+600 m",
        "origem": "faixaelinha.dxf",
        "bloco": "BLK3118",
        "km_m": "64+600 m"
      },
      "geometry": {
        "type": "Point",
        "coordinates": [
          -46.900778792555414,
          -23.168403390677234
        ]
      }
    },
    {
      "type": "Feature",
      "properties": {
        "label": "64+620 m",
        "origem": "faixaelinha.dxf",
        "bloco": "BLK3119",
        "km_m": "64+620 m"
      },
      "geometry": {
        "type": "Point",
        "coordinates": [
          -46.90088581747623,
          -23.168252321676164
        ]
      }
    },
    {
      "type": "Feature",
      "properties": {
        "label": "64+640 m",
        "origem": "faixaelinha.dxf",
        "bloco": "BLK3120",
        "km_m": "64+640 m"
      },
      "geometry": {
        "type": "Point",
        "coordinates": [
          -46.90099284216417,
          -23.168101252615518
        ]
      }
    },
    {
      "type": "Feature",
      "properties": {
        "label": "64+660 m",
        "origem": "faixaelinha.dxf",
        "bloco": "BLK3121",
        "km_m": "64+660 m"
      },
      "geometry": {
        "type": "Point",
        "coordinates": [
          -46.90109646518524,
          -23.1679481947999
        ]
      }
    },
    {
      "type": "Feature",
      "properties": {
        "label": "64+680 m",
        "origem": "faixaelinha.dxf",
        "bloco": "BLK3122",
        "km_m": "64+680 m"
      },
      "geometry": {
        "type": "Point",
        "coordinates": [
          -46.90119819322369,
          -23.16779402913441
        ]
      }
    },
    {
      "type": "Feature",
      "properties": {
        "label": "73+520 m",
        "origem": "faixaelinha.dxf",
        "bloco": "BLK3564",
        "km_m": "73+520 m"
      },
      "geometry": {
        "type": "Point",
        "coordinates": [
          -46.941211955825636,
          -23.104385879516474
        ]
      }
    },
    {
      "type": "Feature",
      "properties": {
        "label": "73+540 m",
        "origem": "faixaelinha.dxf",
        "bloco": "BLK3565",
        "km_m": "73+540 m"
      },
      "geometry": {
        "type": "Point",
        "coordinates": [
          -46.94121465085945,
          -23.104205302429957
        ]
      }
    },
    {
      "type": "Feature",
      "properties": {
        "label": "73+560 m",
        "origem": "faixaelinha.dxf",
        "bloco": "BLK3566",
        "km_m": "73+560 m"
      },
      "geometry": {
        "type": "Point",
        "coordinates": [
          -46.94124897344186,
          -23.10402789451072
        ]
      }
    },
    {
      "type": "Feature",
      "properties": {
        "label": "73+580 m",
        "origem": "faixaelinha.dxf",
        "bloco": "BLK3567",
        "km_m": "73+580 m"
      },
      "geometry": {
        "type": "Point",
        "coordinates": [
          -46.94128814202962,
          -23.10385097217682
        ]
      }
    },
    {
      "type": "Feature",
      "properties": {
        "label": "73+600 m",
        "origem": "faixaelinha.dxf",
        "bloco": "BLK3568",
        "km_m": "73+600 m"
      },
      "geometry": {
        "type": "Point",
        "coordinates": [
          -46.94132731053231,
          -23.103674049836414
        ]
      }
    },
    {
      "type": "Feature",
      "properties": {
        "label": "73+620 m",
        "origem": "faixaelinha.dxf",
        "bloco": "BLK3569",
        "km_m": "73+620 m"
      },
      "geometry": {
        "type": "Point",
        "coordinates": [
          -46.941366478949924,
          -23.103497127489554
        ]
      }
    },
    {
      "type": "Feature",
      "properties": {
        "label": "73+640 m",
        "origem": "faixaelinha.dxf",
        "bloco": "BLK3570",
        "km_m": "73+640 m"
      },
      "geometry": {
        "type": "Point",
        "coordinates": [
          -46.941405647282465,
          -23.103320205136185
        ]
      }
    },
    {
      "type": "Feature",
      "properties": {
        "label": "73+660 m",
        "origem": "faixaelinha.dxf",
        "bloco": "BLK3571",
        "km_m": "73+660 m"
      },
      "geometry": {
        "type": "Point",
        "coordinates": [
          -46.941476114093405,
          -23.103152147075832
        ]
      }
    },
    {
      "type": "Feature",
      "properties": {
        "label": "73+680 m",
        "origem": "faixaelinha.dxf",
        "bloco": "BLK3572",
        "km_m": "73+680 m"
      },
      "geometry": {
        "type": "Point",
        "coordinates": [
          -46.941550736379334,
          -23.102985265940585
        ]
      }
    },
    {
      "type": "Feature",
      "properties": {
        "label": "73+700 m",
        "origem": "faixaelinha.dxf",
        "bloco": "BLK3573",
        "km_m": "73+700 m"
      },
      "geometry": {
        "type": "Point",
        "coordinates": [
          -46.94162535849428,
          -23.102818384779265
        ]
      }
    },
    {
      "type": "Feature",
      "properties": {
        "label": "73+720 m",
        "origem": "faixaelinha.dxf",
        "bloco": "BLK3574",
        "km_m": "73+720 m"
      },
      "geometry": {
        "type": "Point",
        "coordinates": [
          -46.94169998043823,
          -23.10265150359184
        ]
      }
    },
    {
      "type": "Feature",
      "properties": {
        "label": "73+740 m",
        "origem": "faixaelinha.dxf",
        "bloco": "BLK3575",
        "km_m": "73+740 m"
      },
      "geometry": {
        "type": "Point",
        "coordinates": [
          -46.941774602211204,
          -23.102484622378295
        ]
      }
    },
    {
      "type": "Feature",
      "properties": {
        "label": "73+760 m",
        "origem": "faixaelinha.dxf",
        "bloco": "BLK3576",
        "km_m": "73+760 m"
      },
      "geometry": {
        "type": "Point",
        "coordinates": [
          -46.94188070292333,
          -23.10233331915239
        ]
      }
    },
    {
      "type": "Feature",
      "properties": {
        "label": "73+500 m",
        "origem": "faixaelinha.dxf",
        "bloco": "BLK3563",
        "km_m": "73+500 m"
      },
      "geometry": {
        "type": "Point",
        "coordinates": [
          -46.94120926080377,
          -23.10456645659955
        ]
      }
    },
    {
      "type": "Feature",
      "properties": {
        "label": "73+780 m",
        "origem": "faixaelinha.dxf",
        "bloco": "BLK3577",
        "km_m": "73+780 m"
      },
      "geometry": {
        "type": "Point",
        "coordinates": [
          -46.941989359014215,
          -23.102183280557345
        ]
      }
    },
    {
      "type": "Feature",
      "properties": {
        "label": "73+800 m",
        "origem": "faixaelinha.dxf",
        "bloco": "BLK3578",
        "km_m": "73+800 m"
      },
      "geometry": {
        "type": "Point",
        "coordinates": [
          -46.94209801487079,
          -23.102033241901214
        ]
      }
    },
    {
      "type": "Feature",
      "properties": {
        "label": "73+820 m",
        "origem": "faixaelinha.dxf",
        "bloco": "BLK3579",
        "km_m": "73+820 m"
      },
      "geometry": {
        "type": "Point",
        "coordinates": [
          -46.94220667049304,
          -23.101883203183924
        ]
      }
    },
    {
      "type": "Feature",
      "properties": {
        "label": "73+840 m",
        "origem": "faixaelinha.dxf",
        "bloco": "BLK3580",
        "km_m": "73+840 m"
      },
      "geometry": {
        "type": "Point",
        "coordinates": [
          -46.94231532588099,
          -23.101733164405513
        ]
      }
    },
    {
      "type": "Feature",
      "properties": {
        "label": "73+860 m",
        "origem": "faixaelinha.dxf",
        "bloco": "BLK3581",
        "km_m": "73+860 m"
      },
      "geometry": {
        "type": "Point",
        "coordinates": [
          -46.94245310903356,
          -23.10160533130915
        ]
      }
    },
    {
      "type": "Feature",
      "properties": {
        "label": "73+880 m",
        "origem": "faixaelinha.dxf",
        "bloco": "BLK3582",
        "km_m": "73+880 m"
      },
      "geometry": {
        "type": "Point",
        "coordinates": [
          -46.94259155500138,
          -23.101478003604097
        ]
      }
    },
    {
      "type": "Feature",
      "properties": {
        "label": "73+900 m",
        "origem": "faixaelinha.dxf",
        "bloco": "BLK3583",
        "km_m": "73+900 m"
      },
      "geometry": {
        "type": "Point",
        "coordinates": [
          -46.94273000070783,
          -23.10135067579334
        ]
      }
    },
    {
      "type": "Feature",
      "properties": {
        "label": "74+780 m",
        "origem": "faixaelinha.dxf",
        "bloco": "BLK3627",
        "km_m": "74+780 m"
      },
      "geometry": {
        "type": "Point",
        "coordinates": [
          -46.94715680637602,
          -23.09502915763365
        ]
      }
    },
    {
      "type": "Feature",
      "properties": {
        "label": "74+800 m",
        "origem": "faixaelinha.dxf",
        "bloco": "BLK3628",
        "km_m": "74+800 m"
      },
      "geometry": {
        "type": "Point",
        "coordinates": [
          -46.94716858176647,
          -23.094848891968738
        ]
      }
    },
    {
      "type": "Feature",
      "properties": {
        "label": "74+820 m",
        "origem": "faixaelinha.dxf",
        "bloco": "BLK3629",
        "km_m": "74+820 m"
      },
      "geometry": {
        "type": "Point",
        "coordinates": [
          -46.94718035714456,
          -23.09466862630119
        ]
      }
    },
    {
      "type": "Feature",
      "properties": {
        "label": "74+840 m",
        "origem": "faixaelinha.dxf",
        "bloco": "BLK3630",
        "km_m": "74+840 m"
      },
      "geometry": {
        "type": "Point",
        "coordinates": [
          -46.94719368404938,
          -23.09448855396593
        ]
      }
    },
    {
      "type": "Feature",
      "properties": {
        "label": "74+860 m",
        "origem": "faixaelinha.dxf",
        "bloco": "BLK3631",
        "km_m": "74+860 m"
      },
      "geometry": {
        "type": "Point",
        "coordinates": [
          -46.94723388694749,
          -23.094311830607776
        ]
      }
    },
    {
      "type": "Feature",
      "properties": {
        "label": "74+880 m",
        "origem": "faixaelinha.dxf",
        "bloco": "BLK3632",
        "km_m": "74+880 m"
      },
      "geometry": {
        "type": "Point",
        "coordinates": [
          -46.94727408975795,
          -23.094135107242813
        ]
      }
    },
    {
      "type": "Feature",
      "properties": {
        "label": "74+900 m",
        "origem": "faixaelinha.dxf",
        "bloco": "BLK3633",
        "km_m": "74+900 m"
      },
      "geometry": {
        "type": "Point",
        "coordinates": [
          -46.94731429248075,
          -23.09395838387108
        ]
      }
    },
    {
      "type": "Feature",
      "properties": {
        "label": "74+920 m",
        "origem": "faixaelinha.dxf",
        "bloco": "BLK3634",
        "km_m": "74+920 m"
      },
      "geometry": {
        "type": "Point",
        "coordinates": [
          -46.94735449511591,
          -23.093781660492546
        ]
      }
    },
    {
      "type": "Feature",
      "properties": {
        "label": "74+940 m",
        "origem": "faixaelinha.dxf",
        "bloco": "BLK3635",
        "km_m": "74+940 m"
      },
      "geometry": {
        "type": "Point",
        "coordinates": [
          -46.94739647303946,
          -23.09360542950793
        ]
      }
    },
    {
      "type": "Feature",
      "properties": {
        "label": "74+960 m",
        "origem": "faixaelinha.dxf",
        "bloco": "BLK3636",
        "km_m": "74+960 m"
      },
      "geometry": {
        "type": "Point",
        "coordinates": [
          -46.94746799754131,
          -23.09343739328979
        ]
      }
    },
    {
      "type": "Feature",
      "properties": {
        "label": "74+980 m",
        "origem": "faixaelinha.dxf",
        "bloco": "BLK3637",
        "km_m": "74+980 m"
      },
      "geometry": {
        "type": "Point",
        "coordinates": [
          -46.94753952187919,
          -23.093269357048
        ]
      }
    },
    {
      "type": "Feature",
      "properties": {
        "label": "75+000 m",
        "origem": "faixaelinha.dxf",
        "bloco": "BLK3638",
        "km_m": "75+000 m"
      },
      "geometry": {
        "type": "Point",
        "coordinates": [
          -46.9476110460531,
          -23.09310132078253
        ]
      }
    },
    {
      "type": "Feature",
      "properties": {
        "label": "75+020 m",
        "origem": "faixaelinha.dxf",
        "bloco": "BLK3639",
        "km_m": "75+020 m"
      },
      "geometry": {
        "type": "Point",
        "coordinates": [
          -46.94768257006303,
          -23.092933284493405
        ]
      }
    },
    {
      "type": "Feature",
      "properties": {
        "label": "75+040 m",
        "origem": "faixaelinha.dxf",
        "bloco": "BLK3640",
        "km_m": "75+040 m"
      },
      "geometry": {
        "type": "Point",
        "coordinates": [
          -46.94775594281145,
          -23.092766078898865
        ]
      }
    },
    {
      "type": "Feature",
      "properties": {
        "label": "75+060 m",
        "origem": "faixaelinha.dxf",
        "bloco": "BLK3641",
        "km_m": "75+060 m"
      },
      "geometry": {
        "type": "Point",
        "coordinates": [
          -46.94785448054457,
          -23.09261018006802
        ]
      }
    },
    {
      "type": "Feature",
      "properties": {
        "label": "75+080 m",
        "origem": "faixaelinha.dxf",
        "bloco": "BLK3642",
        "km_m": "75+080 m"
      },
      "geometry": {
        "type": "Point",
        "coordinates": [
          -46.947953018059565,
          -23.092454281188243
        ]
      }
    },
    {
      "type": "Feature",
      "properties": {
        "label": "75+100 m",
        "origem": "faixaelinha.dxf",
        "bloco": "BLK3643",
        "km_m": "75+100 m"
      },
      "geometry": {
        "type": "Point",
        "coordinates": [
          -46.948051555356436,
          -23.09229838225952
        ]
      }
    },
    {
      "type": "Feature",
      "properties": {
        "label": "91+140 m",
        "origem": "faixaelinha.dxf",
        "bloco": "BLK4445",
        "km_m": "91+140 m"
      },
      "geometry": {
        "type": "Point",
        "coordinates": [
          -46.99336541804361,
          -22.96939397668158
        ]
      }
    },
    {
      "type": "Feature",
      "properties": {
        "label": "91+160 m",
        "origem": "faixaelinha.dxf",
        "bloco": "BLK4446",
        "km_m": "91+160 m"
      },
      "geometry": {
        "type": "Point",
        "coordinates": [
          -46.99343784540196,
          -22.9692262936909
        ]
      }
    },
    {
      "type": "Feature",
      "properties": {
        "label": "91+180 m",
        "origem": "faixaelinha.dxf",
        "bloco": "BLK4447",
        "km_m": "91+180 m"
      },
      "geometry": {
        "type": "Point",
        "coordinates": [
          -46.99351027259572,
          -22.969058610676335
        ]
      }
    },
    {
      "type": "Feature",
      "properties": {
        "label": "91+200 m",
        "origem": "faixaelinha.dxf",
        "bloco": "BLK4448",
        "km_m": "91+200 m"
      },
      "geometry": {
        "type": "Point",
        "coordinates": [
          -46.9935826996249,
          -22.968890927637915
        ]
      }
    },
    {
      "type": "Feature",
      "properties": {
        "label": "91+220 m",
        "origem": "faixaelinha.dxf",
        "bloco": "BLK4449",
        "km_m": "91+220 m"
      },
      "geometry": {
        "type": "Point",
        "coordinates": [
          -46.993655126489514,
          -22.968723244575614
        ]
      }
    },
    {
      "type": "Feature",
      "properties": {
        "label": "91+240 m",
        "origem": "faixaelinha.dxf",
        "bloco": "BLK4450",
        "km_m": "91+240 m"
      },
      "geometry": {
        "type": "Point",
        "coordinates": [
          -46.993725280432,
          -22.96855474230274
        ]
      }
    },
    {
      "type": "Feature",
      "properties": {
        "label": "91+260 m",
        "origem": "faixaelinha.dxf",
        "bloco": "BLK4451",
        "km_m": "91+260 m"
      },
      "geometry": {
        "type": "Point",
        "coordinates": [
          -46.99379433652475,
          -22.968385844359034
        ]
      }
    },
    {
      "type": "Feature",
      "properties": {
        "label": "91+280 m",
        "origem": "faixaelinha.dxf",
        "bloco": "BLK4452",
        "km_m": "91+280 m"
      },
      "geometry": {
        "type": "Point",
        "coordinates": [
          -46.99386339246051,
          -22.968216946393937
        ]
      }
    },
    {
      "type": "Feature",
      "properties": {
        "label": "91+300 m",
        "origem": "faixaelinha.dxf",
        "bloco": "BLK4453",
        "km_m": "91+300 m"
      },
      "geometry": {
        "type": "Point",
        "coordinates": [
          -46.99393244823928,
          -22.968048048407415
        ]
      }
    },
    {
      "type": "Feature",
      "properties": {
        "label": "91+320 m",
        "origem": "faixaelinha.dxf",
        "bloco": "BLK4454",
        "km_m": "91+320 m"
      },
      "geometry": {
        "type": "Point",
        "coordinates": [
          -46.99400150386106,
          -22.967879150399494
        ]
      }
    },
    {
      "type": "Feature",
      "properties": {
        "label": "91+340 m",
        "origem": "faixaelinha.dxf",
        "bloco": "BLK4455",
        "km_m": "91+340 m"
      },
      "geometry": {
        "type": "Point",
        "coordinates": [
          -46.99405061339771,
          -22.96770489575493
        ]
      }
    },
    {
      "type": "Feature",
      "properties": {
        "label": "91+360 m",
        "origem": "faixaelinha.dxf",
        "bloco": "BLK4456",
        "km_m": "91+360 m"
      },
      "geometry": {
        "type": "Point",
        "coordinates": [
          -46.99408986384266,
          -22.96752799340103
        ]
      }
    },
    {
      "type": "Feature",
      "properties": {
        "label": "91+380 m",
        "origem": "faixaelinha.dxf",
        "bloco": "BLK4457",
        "km_m": "91+380 m"
      },
      "geometry": {
        "type": "Point",
        "coordinates": [
          -46.994129114203474,
          -22.967351091040904
        ]
      }
    },
    {
      "type": "Feature",
      "properties": {
        "label": "91+400 m",
        "origem": "faixaelinha.dxf",
        "bloco": "BLK4458",
        "km_m": "91+400 m"
      },
      "geometry": {
        "type": "Point",
        "coordinates": [
          -46.99416836448016,
          -22.96717418867453
        ]
      }
    },
    {
      "type": "Feature",
      "properties": {
        "label": "91+420 m",
        "origem": "faixaelinha.dxf",
        "bloco": "BLK4459",
        "km_m": "91+420 m"
      },
      "geometry": {
        "type": "Point",
        "coordinates": [
          -46.99420761467271,
          -22.96699728630193
        ]
      }
    }
  ],
  "qgis_style": {
    "color": "#422800",
    "fillColor": "#FFD800",
    "radius": 3.3,
    "weight": 1.4,
    "fillOpacity": 0.98,
    "labelField": "label"
  }
}
