{
"type": "FeatureCollection",
"name": "marcos_km",
"crs": { "type": "name", "properties": { "name": "urn:ogc:def:crs:OGC:1.3:CRS84" } },
"features": [
{ "type": "Feature", "properties": { "nome": "ZBL - 257166,227", "km": "257+166", "codigo_km": "IAA", "ferrovia": "Rumo Malha Paulista" }, "geometry": { "type": "Point", "coordinates": [ -47.137333329669389, -22.890083329581959, 0.0 ] } },
{ "type": "Feature", "properties": { "nome": "ZBL - 258000", "km": "258+000", "codigo_km": "IAA", "ferrovia": "Rumo Malha Paulista" }, "geometry": { "type": "Point", "coordinates": [ -47.138027779858135, -22.886527779833113, 0.0 ] } },
{ "type": "Feature", "properties": { "nome": "ZBL - 259000", "km": "259+000", "codigo_km": "IAA", "ferrovia": "Rumo Malha Paulista" }, "geometry": { "type": "Point", "coordinates": [ -47.139027780107938, -22.880444439958882, 0.0 ] } },
{ "type": "Feature", "properties": { "nome": "ZBV - 258000", "km": "258+000", "codigo_km": "IAA", "ferrovia": "Rumo Malha Paulista" }, "geometry": { "type": "Point", "coordinates": [ -47.138555559591332, -22.882499999675193, 0.0 ] } },
{ "type": "Feature", "properties": { "nome": "ZBV - 51745", "km": "51+745", "codigo_km": "IAA", "ferrovia": "Rumo Malha Paulista" }, "geometry": { "type": "Point", "coordinates": [ -47.135583329906694, -22.889416670243065, 0.0 ] } },
{ "type": "Feature", "properties": { "nome": "ZBV - 51745,35494", "km": "51+745", "codigo_km": "IAA", "ferrovia": "Rumo Malha Paulista" }, "geometry": { "type": "Point", "coordinates": [ -47.135805559578841, -22.889444440408571, 0.0 ] } },
{ "type": "Feature", "properties": { "nome": "ZBV - 52000", "km": "52+000", "codigo_km": "IAA", "ferrovia": "Rumo Malha Paulista" }, "geometry": { "type": "Point", "coordinates": [ -47.137916670417951, -22.888222220379141, 0.0 ] } },
{ "type": "Feature", "properties": { "nome": "ZBV - 52000", "km": "52+000", "codigo_km": "IAA", "ferrovia": "Rumo Malha Paulista" }, "geometry": { "type": "Point", "coordinates": [ -47.137083329831746, -22.887555560140935, 0.0 ] } },
{ "type": "Feature", "properties": { "nome": "ZBV - 52000", "km": "52+000", "codigo_km": "IAA", "ferrovia": "Rumo Malha Paulista" }, "geometry": { "type": "Point", "coordinates": [ -47.140194440021332, -22.8845000001748, 0.0 ] } },
{ "type": "Feature", "properties": { "nome": "ZBV - 52600", "km": "52+600", "codigo_km": "IAA", "ferrovia": "Rumo Malha Paulista" }, "geometry": { "type": "Point", "coordinates": [ -47.143527779883073, -22.886416670392972, 0.0 ] } },
{ "type": "Feature", "properties": { "nome": "ZBV - 52797,88661", "km": "52+797", "codigo_km": "IAA", "ferrovia": "Rumo Malha Paulista" }, "geometry": { "type": "Point", "coordinates": [ -47.145194440371085, -22.886083330381329, 0.0 ] } },
{ "type": "Feature", "properties": { "nome": "ZBV - 52944,79897", "km": "52+944", "codigo_km": "IAA", "ferrovia": "Rumo Malha Paulista" }, "geometry": { "type": "Point", "coordinates": [ -47.146333330119035, -22.88591666981841, 0.0 ] } },
{ "type": "Feature", "properties": { "nome": "ZBV - 53000", "km": "53+000", "codigo_km": "IAA", "ferrovia": "Rumo Malha Paulista" }, "geometry": { "type": "Point", "coordinates": [ -47.147194439971372, -22.885750000262259, 0.0 ] } },
{ "type": "Feature", "properties": { "nome": "ZBV - 53000", "km": "53+000", "codigo_km": "IAA", "ferrovia": "Rumo Malha Paulista" }, "geometry": { "type": "Point", "coordinates": [ -47.147027780307781, -22.885444440308614, 0.0 ] } },
{ "type": "Feature", "properties": { "nome": "ZBV - 54000", "km": "54+000", "codigo_km": "IAA", "ferrovia": "Rumo Malha Paulista" }, "geometry": { "type": "Point", "coordinates": [ -47.152416669993272, -22.877972219842032, 0.0 ] } },
{ "type": "Feature", "properties": { "nome": "ZCP - 43882,86048", "km": "43+882", "codigo_km": "IAA", "ferrovia": "Rumo Malha Paulista" }, "geometry": { "type": "Point", "coordinates": [ -47.065194440171233, -22.909333329669387, 0.0 ] } },
{ "type": "Feature", "properties": { "nome": "ZCP - 44000", "km": "44+000", "codigo_km": "IAA", "ferrovia": "Rumo Malha Paulista" }, "geometry": { "type": "Point", "coordinates": [ -47.066249999637705, -22.909111109889746, 0.0 ] } },
{ "type": "Feature", "properties": { "nome": "ZCP - 44753,80242", "km": "44+753", "codigo_km": "IAA", "ferrovia": "Rumo Malha Paulista" }, "geometry": { "type": "Point", "coordinates": [ -47.07341667004323, -22.90702778000799, 0.0 ] } },
{ "type": "Feature", "properties": { "nome": "ZCP - 45000", "km": "45+000", "codigo_km": "IAA", "ferrovia": "Rumo Malha Paulista" }, "geometry": { "type": "Point", "coordinates": [ -47.07574999976265, -22.906194440321148, 0.0 ] } },
{ "type": "Feature", "properties": { "nome": "ZCP - 46000", "km": "46+000", "codigo_km": "IAA", "ferrovia": "Rumo Malha Paulista" }, "geometry": { "type": "Point", "coordinates": [ -47.083694439846454, -22.901333330368857, 0.0 ] } },
{ "type": "Feature", "properties": { "nome": "ZCP - 47000", "km": "47+000", "codigo_km": "IAA", "ferrovia": "Rumo Malha Paulista" }, "geometry": { "type": "Point", "coordinates": [ -47.093111109689914, -22.899666669880848, 0.0 ] } },
{ "type": "Feature", "properties": { "nome": "ZCP - 48000", "km": "48+000", "codigo_km": "IAA", "ferrovia": "Rumo Malha Paulista" }, "geometry": { "type": "Point", "coordinates": [ -47.102583329756833, -22.89813888989778, 0.0 ] } },
{ "type": "Feature", "properties": { "nome": "ZCP - 49000", "km": "49+000", "codigo_km": "IAA", "ferrovia": "Rumo Malha Paulista" }, "geometry": { "type": "Point", "coordinates": [ -47.112638889672958, -22.900027780057936, 0.0 ] } },
{ "type": "Feature", "properties": { "nome": "ZCP - 50000", "km": "50+000", "codigo_km": "IAA", "ferrovia": "Rumo Malha Paulista" }, "geometry": { "type": "Point", "coordinates": [ -47.121305560003584, -22.897888890060187, 0.0 ] } },
{ "type": "Feature", "properties": { "nome": "ZCP - 51000", "km": "51+000", "codigo_km": "IAA", "ferrovia": "Rumo Malha Paulista" }, "geometry": { "type": "Point", "coordinates": [ -47.129749999762623, -22.892944439933895, 0.0 ] } },
{ "type": "Feature", "properties": { "nome": "ZJY - 0", "km": "0+000", "codigo_km": "IAA", "ferrovia": "Rumo Malha Paulista" }, "geometry": { "type": "Point", "coordinates": [ -46.877777779820633, -23.187249999587777, 0.0 ] } },
{ "type": "Feature", "properties": { "nome": "ZJY - 1000", "km": "1+000", "codigo_km": "IAA", "ferrovia": "Rumo Malha Paulista" }, "geometry": { "type": "Point", "coordinates": [ -46.879583329806792, -23.184194439621646, 0.0 ] } },
{ "type": "Feature", "properties": { "nome": "ZJY - 10000", "km": "10+000", "codigo_km": "IAA", "ferrovia": "Rumo Malha Paulista" }, "geometry": { "type": "Point", "coordinates": [ -46.927972220341644, -23.12441666959359, 0.0 ] } },
{ "type": "Feature", "properties": { "nome": "ZJY - 11000", "km": "11+000", "codigo_km": "IAA", "ferrovia": "Rumo Malha Paulista" }, "geometry": { "type": "Point", "coordinates": [ -46.934638890172621, -23.118750000012426, 0.0 ] } },
{ "type": "Feature", "properties": { "nome": "ZJY - 12000", "km": "12+000", "codigo_km": "IAA", "ferrovia": "Rumo Malha Paulista" }, "geometry": { "type": "Point", "coordinates": [ -46.938972220391634, -23.111416669943328, 0.0 ] } },
{ "type": "Feature", "properties": { "nome": "ZJY - 13000", "km": "13+000", "codigo_km": "IAA", "ferrovia": "Rumo Malha Paulista" }, "geometry": { "type": "Point", "coordinates": [ -46.941416670343017, -23.103472219966928, 0.0 ] } },
{ "type": "Feature", "properties": { "nome": "ZJY - 14000", "km": "14+000", "codigo_km": "IAA", "ferrovia": "Rumo Malha Paulista" }, "geometry": { "type": "Point", "coordinates": [ -46.947111110089637, -23.096444439958869, 0.0 ] } },
{ "type": "Feature", "properties": { "nome": "ZJY - 15000", "km": "15+000", "codigo_km": "IAA", "ferrovia": "Rumo Malha Paulista" }, "geometry": { "type": "Point", "coordinates": [ -46.949388889585521, -23.087888889860327, 0.0 ] } },
{ "type": "Feature", "properties": { "nome": "ZJY - 16000", "km": "16+000", "codigo_km": "IAA", "ferrovia": "Rumo Malha Paulista" }, "geometry": { "type": "Point", "coordinates": [ -46.948444439559182, -23.078888890310008, 0.0 ] } },
{ "type": "Feature", "properties": { "nome": "ZJY - 17000", "km": "17+000", "codigo_km": "IAA", "ferrovia": "Rumo Malha Paulista" }, "geometry": { "type": "Point", "coordinates": [ -46.944111110239476, -23.071138889947747, 0.0 ] } },
{ "type": "Feature", "properties": { "nome": "ZJY - 18000", "km": "18+000", "codigo_km": "IAA", "ferrovia": "Rumo Malha Paulista" }, "geometry": { "type": "Point", "coordinates": [ -46.944611109914781, -23.062194439721569, 0.0 ] } },
{ "type": "Feature", "properties": { "nome": "ZJY - 19000", "km": "19+000", "codigo_km": "IAA", "ferrovia": "Rumo Malha Paulista" }, "geometry": { "type": "Point", "coordinates": [ -46.950527780232846, -23.055249999887568, 0.0 ] } },
{ "type": "Feature", "properties": { "nome": "ZJY - 1991,272928", "km": "1+991", "codigo_km": "IAA", "ferrovia": "Rumo Malha Paulista" }, "geometry": { "type": "Point", "coordinates": [ -46.886305559753744, -23.178111109639936, 0.0 ] } },
{ "type": "Feature", "properties": { "nome": "ZJY - 2000", "km": "2+000", "codigo_km": "IAA", "ferrovia": "Rumo Malha Paulista" }, "geometry": { "type": "Point", "coordinates": [ -46.886388890035228, -23.17808332958197, 0.0 ] } },
{ "type": "Feature", "properties": { "nome": "ZJY - 20000", "km": "20+000", "codigo_km": "IAA", "ferrovia": "Rumo Malha Paulista" }, "geometry": { "type": "Point", "coordinates": [ -46.957722219904497, -23.050638889772934, 0.0 ] } },
{ "type": "Feature", "properties": { "nome": "ZJY - 4000", "km": "4+000", "codigo_km": "IAA", "ferrovia": "Rumo Malha Paulista" }, "geometry": { "type": "Point", "coordinates": [ -46.901333330069065, -23.1674999998251, 0.0 ] } },
{ "type": "Feature", "properties": { "nome": "ZJY - 5000", "km": "5+000", "codigo_km": "IAA", "ferrovia": "Rumo Malha Paulista" }, "geometry": { "type": "Point", "coordinates": [ -46.903777780020505, -23.159166670405462, 0.0 ] } },
{ "type": "Feature", "properties": { "nome": "ZJY - 6000", "km": "6+000", "codigo_km": "IAA", "ferrovia": "Rumo Malha Paulista" }, "geometry": { "type": "Point", "coordinates": [ -46.904500000374696, -23.150500000074896, 0.0 ] } },
{ "type": "Feature", "properties": { "nome": "ZJY - 7000", "km": "7+000", "codigo_km": "IAA", "ferrovia": "Rumo Malha Paulista" }, "geometry": { "type": "Point", "coordinates": [ -46.907333329769301, -23.142027780257816, 0.0 ] } },
{ "type": "Feature", "properties": { "nome": "ZJY - 8000", "km": "8+000", "codigo_km": "IAA", "ferrovia": "Rumo Malha Paulista" }, "geometry": { "type": "Point", "coordinates": [ -46.914250000337177, -23.136194440221178, 0.0 ] } },
{ "type": "Feature", "properties": { "nome": "ZJY - 9000", "km": "9+000", "codigo_km": "IAA", "ferrovia": "Rumo Malha Paulista" }, "geometry": { "type": "Point", "coordinates": [ -46.92111110988975, -23.130444440358584, 0.0 ] } },
{ "type": "Feature", "properties": { "nome": "ZQB - 256000", "km": "256+000", "codigo_km": "IAA", "ferrovia": "Rumo Malha Paulista" }, "geometry": { "type": "Point", "coordinates": [ -47.137916670417951, -22.89622221967965, 0.0 ] } },
{ "type": "Feature", "properties": { "nome": "ZQB - 51000", "km": "51+000", "codigo_km": "IAA", "ferrovia": "Rumo Malha Paulista" }, "geometry": { "type": "Point", "coordinates": [ -47.137527780182893, -22.896666670030754, 0.0 ] } },
{ "type": "Feature", "properties": { "nome": "ZQB - 52000", "km": "52+000", "codigo_km": "IAA", "ferrovia": "Rumo Malha Paulista" }, "geometry": { "type": "Point", "coordinates": [ -47.138027779858135, -22.888472220216723, 0.0 ] } },
{ "type": "Feature", "properties": { "nome": "ZVN - 21073,10012", "km": "21+073", "codigo_km": "IAA", "ferrovia": "Rumo Malha Paulista" }, "geometry": { "type": "Point", "coordinates": [ -46.963805559778734, -23.044611110014674, 0.0 ] } },
{ "type": "Feature", "properties": { "nome": "ZVN - 22000", "km": "22+000", "codigo_km": "IAA", "ferrovia": "Rumo Malha Paulista" }, "geometry": { "type": "Point", "coordinates": [ -46.96627777989557, -23.036583329756812, 0.0 ] } },
{ "type": "Feature", "properties": { "nome": "ZVN - 22680,7132", "km": "22+680", "codigo_km": "IAA", "ferrovia": "Rumo Malha Paulista" }, "geometry": { "type": "Point", "coordinates": [ -46.969833329644416, -23.031388889685456, 0.0 ] } },
{ "type": "Feature", "properties": { "nome": "ZVN - 23000", "km": "23+000", "codigo_km": "IAA", "ferrovia": "Rumo Malha Paulista" }, "geometry": { "type": "Point", "coordinates": [ -46.971527780082965, -23.029055559966075, 0.0 ] } },
{ "type": "Feature", "properties": { "nome": "ZVN - 24000", "km": "24+000", "codigo_km": "IAA", "ferrovia": "Rumo Malha Paulista" }, "geometry": { "type": "Point", "coordinates": [ -46.979888889560591, -23.024972219692135, 0.0 ] } },
{ "type": "Feature", "properties": { "nome": "ZVN - 25000", "km": "25+000", "codigo_km": "IAA", "ferrovia": "Rumo Malha Paulista" }, "geometry": { "type": "Point", "coordinates": [ -46.981555559941114, -23.016666670330551, 0.0 ] } },
{ "type": "Feature", "properties": { "nome": "ZVN - 26000", "km": "26+000", "codigo_km": "IAA", "ferrovia": "Rumo Malha Paulista" }, "geometry": { "type": "Point", "coordinates": [ -46.984750000412141, -23.008333330119065, 0.0 ] } },
{ "type": "Feature", "properties": { "nome": "ZVN - 27000", "km": "27+000", "codigo_km": "IAA", "ferrovia": "Rumo Malha Paulista" }, "geometry": { "type": "Point", "coordinates": [ -46.988944440233695, -23.000277779695764, 0.0 ] } },
{ "type": "Feature", "properties": { "nome": "ZVN - 28000", "km": "28+000", "codigo_km": "IAA", "ferrovia": "Rumo Malha Paulista" }, "geometry": { "type": "Point", "coordinates": [ -46.99013889009769, -22.991305560203397, 0.0 ] } },
{ "type": "Feature", "properties": { "nome": "ZVN - 29000", "km": "29+000", "codigo_km": "IAA", "ferrovia": "Rumo Malha Paulista" }, "geometry": { "type": "Point", "coordinates": [ -46.990361109877256, -22.982333329919189, 0.0 ] } },
{ "type": "Feature", "properties": { "nome": "ZVN - 30000", "km": "30+000", "codigo_km": "IAA", "ferrovia": "Rumo Malha Paulista" }, "geometry": { "type": "Point", "coordinates": [ -46.990027779758186, -22.973527779982998, 0.0 ] } },
{ "type": "Feature", "properties": { "nome": "ZVN - 31000", "km": "31+000", "codigo_km": "IAA", "ferrovia": "Rumo Malha Paulista" }, "geometry": { "type": "Point", "coordinates": [ -46.99419444042104, -22.965805559678799, 0.0 ] } },
{ "type": "Feature", "properties": { "nome": "ZVN - 32000", "km": "32+000", "codigo_km": "IAA", "ferrovia": "Rumo Malha Paulista" }, "geometry": { "type": "Point", "coordinates": [ -46.987638889922778, -22.959305560303331, 0.0 ] } },
{ "type": "Feature", "properties": { "nome": "ZVN - 33000", "km": "33+000", "codigo_km": "IAA", "ferrovia": "Rumo Malha Paulista" }, "geometry": { "type": "Point", "coordinates": [ -46.985583330206516, -22.950055560016054, 0.0 ] } },
{ "type": "Feature", "properties": { "nome": "ZVN - 34000", "km": "34+000", "codigo_km": "IAA", "ferrovia": "Rumo Malha Paulista" }, "geometry": { "type": "Point", "coordinates": [ -46.987416670143148, -22.942027779758174, 0.0 ] } },
{ "type": "Feature", "properties": { "nome": "ZVN - 35000", "km": "35+000", "codigo_km": "IAA", "ferrovia": "Rumo Malha Paulista" }, "geometry": { "type": "Point", "coordinates": [ -46.994805560328302, -22.937083329631879, 0.0 ] } },
{ "type": "Feature", "properties": { "nome": "ZVN - 36000", "km": "36+000", "codigo_km": "IAA", "ferrovia": "Rumo Malha Paulista" }, "geometry": { "type": "Point", "coordinates": [ -47.002055560115984, -22.931638889722944, 0.0 ] } },
{ "type": "Feature", "properties": { "nome": "ZVN - 37000", "km": "37+000", "codigo_km": "IAA", "ferrovia": "Rumo Malha Paulista" }, "geometry": { "type": "Point", "coordinates": [ -47.011666669681013, -22.930888890210042, 0.0 ] } },
{ "type": "Feature", "properties": { "nome": "ZVN - 38000", "km": "38+000", "codigo_km": "IAA", "ferrovia": "Rumo Malha Paulista" }, "geometry": { "type": "Point", "coordinates": [ -47.021277780145397, -22.931194440271149, 0.0 ] } },
{ "type": "Feature", "properties": { "nome": "ZVN - 39000", "km": "39+000", "codigo_km": "IAA", "ferrovia": "Rumo Malha Paulista" }, "geometry": { "type": "Point", "coordinates": [ -47.030666669930838, -22.930805559928608, 0.0 ] } },
{ "type": "Feature", "properties": { "nome": "ZVN - 40000", "km": "40+000", "codigo_km": "IAA", "ferrovia": "Rumo Malha Paulista" }, "geometry": { "type": "Point", "coordinates": [ -47.036000000399667, -22.924027779758205, 0.0 ] } },
{ "type": "Feature", "properties": { "nome": "ZVN - 41000", "km": "41+000", "codigo_km": "IAA", "ferrovia": "Rumo Malha Paulista" }, "geometry": { "type": "Point", "coordinates": [ -47.044999999950001, -22.92419444032112, 0.0 ] } },
{ "type": "Feature", "properties": { "nome": "ZVN - 42000", "km": "42+000", "codigo_km": "IAA", "ferrovia": "Rumo Malha Paulista" }, "geometry": { "type": "Point", "coordinates": [ -47.050222220079377, -22.917222220429103, 0.0 ] } },
{ "type": "Feature", "properties": { "nome": "ZVN - 43000", "km": "43+000", "codigo_km": "IAA", "ferrovia": "Rumo Malha Paulista" }, "geometry": { "type": "Point", "coordinates": [ -47.058527780232851, -22.913472220166806, 0.0 ] } }
]
}
