{
"type": "FeatureCollection",
"name": "vet_dxf_pontos",
"features": [
{ "type": "Feature", "properties": { "Layer": "Limite OC", "PaperSpace": null, "SubClasses": "AcDbEntity:AcDbText:AcDbText", "Linetype": null, "EntityHandle": "671", "Text": "OC-1" }, "geometry": { "type": "Point", "coordinates": [ -46.9008579, -23.1679499, 0.0 ] } },
{ "type": "Feature", "properties": { "Layer": "Limite OC", "PaperSpace": null, "SubClasses": "AcDbEntity:AcDbText:AcDbText", "Linetype": null, "EntityHandle": "672", "Text": "OC-2" }, "geometry": { "type": "Point", "coordinates": [ -46.9008437, -23.16798, 0.0 ] } },
{ "type": "Feature", "properties": { "Layer": "Limite OC", "PaperSpace": null, "SubClasses": "AcDbEntity:AcDbText:AcDbText", "Linetype": null, "EntityHandle": "673", "Text": "OC-3" }, "geometry": { "type": "Point", "coordinates": [ -46.9008269, -23.1680057, 0.0 ] } },
{ "type": "Feature", "properties": { "Layer": "Limite OC", "PaperSpace": null, "SubClasses": "AcDbEntity:AcDbText:AcDbText", "Linetype": null, "EntityHandle": "674", "Text": "OC-4" }, "geometry": { "type": "Point", "coordinates": [ -46.9007934, -23.1680281, 0.0 ] } },
{ "type": "Feature", "properties": { "Layer": "Limite OC", "PaperSpace": null, "SubClasses": "AcDbEntity:AcDbText:AcDbText", "Linetype": null, "EntityHandle": "675", "Text": "OC-5" }, "geometry": { "type": "Point", "coordinates": [ -46.9007695, -23.1680555, 0.0 ] } },
{ "type": "Feature", "properties": { "Layer": "Limite OC", "PaperSpace": null, "SubClasses": "AcDbEntity:AcDbText:AcDbText", "Linetype": null, "EntityHandle": "676", "Text": "OC-6" }, "geometry": { "type": "Point", "coordinates": [ -46.9007459, -23.1680696, 0.0 ] } },
{ "type": "Feature", "properties": { "Layer": "Limite OC", "PaperSpace": null, "SubClasses": "AcDbEntity:AcDbText:AcDbText", "Linetype": null, "EntityHandle": "677", "Text": "OC-7" }, "geometry": { "type": "Point", "coordinates": [ -46.9007246, -23.1680952, 0.0 ] } },
{ "type": "Feature", "properties": { "Layer": "Limite OC", "PaperSpace": null, "SubClasses": "AcDbEntity:AcDbText:AcDbText", "Linetype": null, "EntityHandle": "678", "Text": "OC-8" }, "geometry": { "type": "Point", "coordinates": [ -46.9007239, -23.1681223, 0.0 ] } },
{ "type": "Feature", "properties": { "Layer": "Limite OC", "PaperSpace": null, "SubClasses": "AcDbEntity:AcDbText:AcDbText", "Linetype": null, "EntityHandle": "679", "Text": "OC-9" }, "geometry": { "type": "Point", "coordinates": [ -46.9007076, -23.1681445, 0.0 ] } },
{ "type": "Feature", "properties": { "Layer": "Limite OC", "PaperSpace": null, "SubClasses": "AcDbEntity:AcDbText:AcDbText", "Linetype": null, "EntityHandle": "67A", "Text": "OC-10" }, "geometry": { "type": "Point", "coordinates": [ -46.9006747, -23.168173, 0.0 ] } },
{ "type": "Feature", "properties": { "Layer": "Limite OC", "PaperSpace": null, "SubClasses": "AcDbEntity:AcDbText:AcDbText", "Linetype": null, "EntityHandle": "67B", "Text": "OC-11" }, "geometry": { "type": "Point", "coordinates": [ -46.9006584, -23.1681931, 0.0 ] } },
{ "type": "Feature", "properties": { "Layer": "Limite OC", "PaperSpace": null, "SubClasses": "AcDbEntity:AcDbText:AcDbText", "Linetype": null, "EntityHandle": "67C", "Text": "OC-12" }, "geometry": { "type": "Point", "coordinates": [ -46.9006355, -23.1682139, 0.0 ] } },
{ "type": "Feature", "properties": { "Layer": "Limite OC", "PaperSpace": null, "SubClasses": "AcDbEntity:AcDbText:AcDbText", "Linetype": null, "EntityHandle": "67D", "Text": "OC-13" }, "geometry": { "type": "Point", "coordinates": [ -46.9006137, -23.1682417, 0.0 ] } },
{ "type": "Feature", "properties": { "Layer": "Limite OC", "PaperSpace": null, "SubClasses": "AcDbEntity:AcDbText:AcDbText", "Linetype": null, "EntityHandle": "67E", "Text": "OC-14" }, "geometry": { "type": "Point", "coordinates": [ -46.9005963, -23.1682624, 0.0 ] } },
{ "type": "Feature", "properties": { "Layer": "Limite OC", "PaperSpace": null, "SubClasses": "AcDbEntity:AcDbText:AcDbText", "Linetype": null, "EntityHandle": "67F", "Text": "OC-15" }, "geometry": { "type": "Point", "coordinates": [ -46.9005821, -23.1682847, 0.0 ] } },
{ "type": "Feature", "properties": { "Layer": "Limite OC", "PaperSpace": null, "SubClasses": "AcDbEntity:AcDbText:AcDbText", "Linetype": null, "EntityHandle": "680", "Text": "OC-16" }, "geometry": { "type": "Point", "coordinates": [ -46.9005731, -23.168312, 0.0 ] } },
{ "type": "Feature", "properties": { "Layer": "Limite OC", "PaperSpace": null, "SubClasses": "AcDbEntity:AcDbText:AcDbText", "Linetype": null, "EntityHandle": "681", "Text": "OC-17" }, "geometry": { "type": "Point", "coordinates": [ -46.9005462, -23.1683433, 0.0 ] } },
{ "type": "Feature", "properties": { "Layer": "Limite OC", "PaperSpace": null, "SubClasses": "AcDbEntity:AcDbText:AcDbText", "Linetype": null, "EntityHandle": "682", "Text": "OC-18" }, "geometry": { "type": "Point", "coordinates": [ -46.9005327, -23.1683679, 0.0 ] } },
{ "type": "Feature", "properties": { "Layer": "Limite OC", "PaperSpace": null, "SubClasses": "AcDbEntity:AcDbText:AcDbText", "Linetype": null, "EntityHandle": "683", "Text": "OC-19" }, "geometry": { "type": "Point", "coordinates": [ -46.9005098, -23.1683896, 0.0 ] } },
{ "type": "Feature", "properties": { "Layer": "Limite OC", "PaperSpace": null, "SubClasses": "AcDbEntity:AcDbText:AcDbText", "Linetype": null, "EntityHandle": "684", "Text": "OC-20" }, "geometry": { "type": "Point", "coordinates": [ -46.9004922, -23.1684176, 0.0 ] } },
{ "type": "Feature", "properties": { "Layer": "Limite OC", "PaperSpace": null, "SubClasses": "AcDbEntity:AcDbText:AcDbText", "Linetype": null, "EntityHandle": "685", "Text": "OC-21" }, "geometry": { "type": "Point", "coordinates": [ -46.9004708, -23.1684473, 0.0 ] } },
{ "type": "Feature", "properties": { "Layer": "Limite OC", "PaperSpace": null, "SubClasses": "AcDbEntity:AcDbText:AcDbText", "Linetype": null, "EntityHandle": "686", "Text": "OC-22" }, "geometry": { "type": "Point", "coordinates": [ -46.9004564, -23.1684652, 0.0 ] } },
{ "type": "Feature", "properties": { "Layer": "Limite OC", "PaperSpace": null, "SubClasses": "AcDbEntity:AcDbText:AcDbText", "Linetype": null, "EntityHandle": "687", "Text": "OC-23" }, "geometry": { "type": "Point", "coordinates": [ -46.900432, -23.1684995, 0.0 ] } },
{ "type": "Feature", "properties": { "Layer": "Limite OC", "PaperSpace": null, "SubClasses": "AcDbEntity:AcDbText:AcDbText", "Linetype": null, "EntityHandle": "688", "Text": "OC-24" }, "geometry": { "type": "Point", "coordinates": [ -46.9004171, -23.1685206, 0.0 ] } },
{ "type": "Feature", "properties": { "Layer": "Limite OC", "PaperSpace": null, "SubClasses": "AcDbEntity:AcDbText:AcDbText", "Linetype": null, "EntityHandle": "689", "Text": "OC-25" }, "geometry": { "type": "Point", "coordinates": [ -46.9003863, -23.1685374, 0.0 ] } },
{ "type": "Feature", "properties": { "Layer": "Limite OC", "PaperSpace": null, "SubClasses": "AcDbEntity:AcDbText:AcDbText", "Linetype": null, "EntityHandle": "68A", "Text": "OC-26" }, "geometry": { "type": "Point", "coordinates": [ -46.9003957, -23.1685756, 0.0 ] } },
{ "type": "Feature", "properties": { "Layer": "Limite OC", "PaperSpace": null, "SubClasses": "AcDbEntity:AcDbText:AcDbText", "Linetype": null, "EntityHandle": "68B", "Text": "OC-27" }, "geometry": { "type": "Point", "coordinates": [ -46.9003572, -23.168595, 0.0 ] } },
{ "type": "Feature", "properties": { "Layer": "Limite OC", "PaperSpace": null, "SubClasses": "AcDbEntity:AcDbText:AcDbText", "Linetype": null, "EntityHandle": "68C", "Text": "OC-28" }, "geometry": { "type": "Point", "coordinates": [ -46.9003315, -23.168623, 0.0 ] } },
{ "type": "Feature", "properties": { "Layer": "Limite OC", "PaperSpace": null, "SubClasses": "AcDbEntity:AcDbText:AcDbText", "Linetype": null, "EntityHandle": "68D", "Text": "OC-29" }, "geometry": { "type": "Point", "coordinates": [ -46.900347, -23.1686685, 0.0 ] } },
{ "type": "Feature", "properties": { "Layer": "Limite OC", "PaperSpace": null, "SubClasses": "AcDbEntity:AcDbText:AcDbText", "Linetype": null, "EntityHandle": "68E", "Text": "OC-30" }, "geometry": { "type": "Point", "coordinates": [ -46.9002995, -23.168671, 0.0 ] } },
{ "type": "Feature", "properties": { "Layer": "Limite OC", "PaperSpace": null, "SubClasses": "AcDbEntity:AcDbText:AcDbText", "Linetype": null, "EntityHandle": "68F", "Text": "OC-31" }, "geometry": { "type": "Point", "coordinates": [ -46.9002614, -23.1686822, 0.0 ] } },
{ "type": "Feature", "properties": { "Layer": "Limite OC", "PaperSpace": null, "SubClasses": "AcDbEntity:AcDbText:AcDbText", "Linetype": null, "EntityHandle": "690", "Text": "OC-32" }, "geometry": { "type": "Point", "coordinates": [ -46.9002427, -23.1686984, 0.0 ] } },
{ "type": "Feature", "properties": { "Layer": "Limite OC", "PaperSpace": null, "SubClasses": "AcDbEntity:AcDbText:AcDbText", "Linetype": null, "EntityHandle": "691", "Text": "OC-33" }, "geometry": { "type": "Point", "coordinates": [ -46.9002389, -23.1687455, 0.0 ] } },
{ "type": "Feature", "properties": { "Layer": "Limite OC", "PaperSpace": null, "SubClasses": "AcDbEntity:AcDbText:AcDbText", "Linetype": null, "EntityHandle": "692", "Text": "OC-34" }, "geometry": { "type": "Point", "coordinates": [ -46.900217, -23.1687643, 0.0 ] } },
{ "type": "Feature", "properties": { "Layer": "Limite OC", "PaperSpace": null, "SubClasses": "AcDbEntity:AcDbText:AcDbText", "Linetype": null, "EntityHandle": "693", "Text": "OC-35" }, "geometry": { "type": "Point", "coordinates": [ -46.9001972, -23.1687876, 0.0 ] } },
{ "type": "Feature", "properties": { "Layer": "Limite OC", "PaperSpace": null, "SubClasses": "AcDbEntity:AcDbText:AcDbText", "Linetype": null, "EntityHandle": "694", "Text": "OC-36" }, "geometry": { "type": "Point", "coordinates": [ -46.9001722, -23.1688393, 0.0 ] } },
{ "type": "Feature", "properties": { "Layer": "Limite OC", "PaperSpace": null, "SubClasses": "AcDbEntity:AcDbText:AcDbText", "Linetype": null, "EntityHandle": "695", "Text": "OC-37" }, "geometry": { "type": "Point", "coordinates": [ -46.900129, -23.168853, 0.0 ] } },
{ "type": "Feature", "properties": { "Layer": "Limite OC", "PaperSpace": null, "SubClasses": "AcDbEntity:AcDbText:AcDbText", "Linetype": null, "EntityHandle": "696", "Text": "OC-38" }, "geometry": { "type": "Point", "coordinates": [ -46.9001118, -23.1688817, 0.0 ] } },
{ "type": "Feature", "properties": { "Layer": "Limite OC", "PaperSpace": null, "SubClasses": "AcDbEntity:AcDbText:AcDbText", "Linetype": null, "EntityHandle": "697", "Text": "OC-39" }, "geometry": { "type": "Point", "coordinates": [ -46.9000843, -23.1689009, 0.0 ] } },
{ "type": "Feature", "properties": { "Layer": "Limite OC", "PaperSpace": null, "SubClasses": "AcDbEntity:AcDbText:AcDbText", "Linetype": null, "EntityHandle": "698", "Text": "OC-40" }, "geometry": { "type": "Point", "coordinates": [ -46.9000753, -23.1689247, 0.0 ] } },
{ "type": "Feature", "properties": { "Layer": "Limite OC", "PaperSpace": null, "SubClasses": "AcDbEntity:AcDbText:AcDbText", "Linetype": null, "EntityHandle": "699", "Text": "OC-41" }, "geometry": { "type": "Point", "coordinates": [ -46.9000339, -23.1689392, 0.0 ] } },
{ "type": "Feature", "properties": { "Layer": "Limite OC", "PaperSpace": null, "SubClasses": "AcDbEntity:AcDbText:AcDbText", "Linetype": null, "EntityHandle": "69A", "Text": "OC-42" }, "geometry": { "type": "Point", "coordinates": [ -46.9000119, -23.1689567, 0.0 ] } },
{ "type": "Feature", "properties": { "Layer": "Limite OC", "PaperSpace": null, "SubClasses": "AcDbEntity:AcDbText:AcDbText", "Linetype": null, "EntityHandle": "69B", "Text": "OC-43" }, "geometry": { "type": "Point", "coordinates": [ -46.9000106, -23.1689859, 0.0 ] } },
{ "type": "Feature", "properties": { "Layer": "Limite OC", "PaperSpace": null, "SubClasses": "AcDbEntity:AcDbText:AcDbText", "Linetype": null, "EntityHandle": "69C", "Text": "OC-44" }, "geometry": { "type": "Point", "coordinates": [ -46.8999785, -23.1690177, 0.0 ] } },
{ "type": "Feature", "properties": { "Layer": "Limite OC", "PaperSpace": null, "SubClasses": "AcDbEntity:AcDbText:AcDbText", "Linetype": null, "EntityHandle": "69D", "Text": "OC-45" }, "geometry": { "type": "Point", "coordinates": [ -46.8999643, -23.1690412, 0.0 ] } },
{ "type": "Feature", "properties": { "Layer": "Limite OC", "PaperSpace": null, "SubClasses": "AcDbEntity:AcDbText:AcDbText", "Linetype": null, "EntityHandle": "69E", "Text": "OC-46" }, "geometry": { "type": "Point", "coordinates": [ -46.8999183, -23.1690875, 0.0 ] } },
{ "type": "Feature", "properties": { "Layer": "Limite OC", "PaperSpace": null, "SubClasses": "AcDbEntity:AcDbText:AcDbText", "Linetype": null, "EntityHandle": "69F", "Text": "OC-47" }, "geometry": { "type": "Point", "coordinates": [ -46.8999035, -23.1691217, 0.0 ] } },
{ "type": "Feature", "properties": { "Layer": "Limite OC", "PaperSpace": null, "SubClasses": "AcDbEntity:AcDbText:AcDbText", "Linetype": null, "EntityHandle": "6A0", "Text": "OC-48" }, "geometry": { "type": "Point", "coordinates": [ -46.8998929, -23.1691346, 0.0 ] } },
{ "type": "Feature", "properties": { "Layer": "Limite OC", "PaperSpace": null, "SubClasses": "AcDbEntity:AcDbText:AcDbText", "Linetype": null, "EntityHandle": "6A1", "Text": "OC-49" }, "geometry": { "type": "Point", "coordinates": [ -46.8998646, -23.1691657, 0.0 ] } },
{ "type": "Feature", "properties": { "Layer": "Limite OC", "PaperSpace": null, "SubClasses": "AcDbEntity:AcDbText:AcDbText", "Linetype": null, "EntityHandle": "6A2", "Text": "OC-50" }, "geometry": { "type": "Point", "coordinates": [ -46.8998296, -23.1692158, 0.0 ] } },
{ "type": "Feature", "properties": { "Layer": "Limite OC", "PaperSpace": null, "SubClasses": "AcDbEntity:AcDbText:AcDbText", "Linetype": null, "EntityHandle": "6A3", "Text": "OC-51" }, "geometry": { "type": "Point", "coordinates": [ -46.8998115, -23.1692395, 0.0 ] } },
{ "type": "Feature", "properties": { "Layer": "Limite OC", "PaperSpace": null, "SubClasses": "AcDbEntity:AcDbText:AcDbText", "Linetype": null, "EntityHandle": "6A4", "Text": "OC-52" }, "geometry": { "type": "Point", "coordinates": [ -46.8997956, -23.1692628, 0.0 ] } },
{ "type": "Feature", "properties": { "Layer": "Limite OC", "PaperSpace": null, "SubClasses": "AcDbEntity:AcDbText:AcDbText", "Linetype": null, "EntityHandle": "6A5", "Text": "OC-53" }, "geometry": { "type": "Point", "coordinates": [ -46.8997786, -23.1692857, 0.0 ] } },
{ "type": "Feature", "properties": { "Layer": "Limite OC", "PaperSpace": null, "SubClasses": "AcDbEntity:AcDbText:AcDbText", "Linetype": null, "EntityHandle": "6A6", "Text": "OC-54" }, "geometry": { "type": "Point", "coordinates": [ -46.899757, -23.1693115, 0.0 ] } },
{ "type": "Feature", "properties": { "Layer": "Limite OC", "PaperSpace": null, "SubClasses": "AcDbEntity:AcDbText:AcDbText", "Linetype": null, "EntityHandle": "6A7", "Text": "OC-55" }, "geometry": { "type": "Point", "coordinates": [ -46.8997333, -23.1693489, 0.0 ] } },
{ "type": "Feature", "properties": { "Layer": "Limite OC", "PaperSpace": null, "SubClasses": "AcDbEntity:AcDbText:AcDbText", "Linetype": null, "EntityHandle": "6A8", "Text": "OC-56" }, "geometry": { "type": "Point", "coordinates": [ -46.8997103, -23.1693931, 0.0 ] } },
{ "type": "Feature", "properties": { "Layer": "Limite OC", "PaperSpace": null, "SubClasses": "AcDbEntity:AcDbText:AcDbText", "Linetype": null, "EntityHandle": "6A9", "Text": "OC-57" }, "geometry": { "type": "Point", "coordinates": [ -46.8996759, -23.1694164, 0.0 ] } },
{ "type": "Feature", "properties": { "Layer": "Limite OC", "PaperSpace": null, "SubClasses": "AcDbEntity:AcDbText:AcDbText", "Linetype": null, "EntityHandle": "6AA", "Text": "OC-58" }, "geometry": { "type": "Point", "coordinates": [ -46.8996521, -23.16945, 0.0 ] } },
{ "type": "Feature", "properties": { "Layer": "Limite OC", "PaperSpace": null, "SubClasses": "AcDbEntity:AcDbText:AcDbText", "Linetype": null, "EntityHandle": "6AB", "Text": "OC-59" }, "geometry": { "type": "Point", "coordinates": [ -46.899642, -23.1694927, 0.0 ] } },
{ "type": "Feature", "properties": { "Layer": "Limite OC", "PaperSpace": null, "SubClasses": "AcDbEntity:AcDbText:AcDbText", "Linetype": null, "EntityHandle": "6AC", "Text": "OC-60" }, "geometry": { "type": "Point", "coordinates": [ -46.8995996, -23.1695197, 0.0 ] } },
{ "type": "Feature", "properties": { "Layer": "Limite OC", "PaperSpace": null, "SubClasses": "AcDbEntity:AcDbText:AcDbText", "Linetype": null, "EntityHandle": "6AD", "Text": "OC-61" }, "geometry": { "type": "Point", "coordinates": [ -46.8995729, -23.1695671, 0.0 ] } },
{ "type": "Feature", "properties": { "Layer": "Limite OC", "PaperSpace": null, "SubClasses": "AcDbEntity:AcDbText:AcDbText", "Linetype": null, "EntityHandle": "6AE", "Text": "OC-62" }, "geometry": { "type": "Point", "coordinates": [ -46.8995402, -23.1696104, 0.0 ] } },
{ "type": "Feature", "properties": { "Layer": "Limite OC", "PaperSpace": null, "SubClasses": "AcDbEntity:AcDbText:AcDbText", "Linetype": null, "EntityHandle": "6AF", "Text": "OC-63" }, "geometry": { "type": "Point", "coordinates": [ -46.8995177, -23.1696429, 0.0 ] } },
{ "type": "Feature", "properties": { "Layer": "Limite OC", "PaperSpace": null, "SubClasses": "AcDbEntity:AcDbText:AcDbText", "Linetype": null, "EntityHandle": "6B0", "Text": "OC-64" }, "geometry": { "type": "Point", "coordinates": [ -46.8995018, -23.1696693, 0.0 ] } },
{ "type": "Feature", "properties": { "Layer": "Limite OC", "PaperSpace": null, "SubClasses": "AcDbEntity:AcDbText:AcDbText", "Linetype": null, "EntityHandle": "6B1", "Text": "OC-65" }, "geometry": { "type": "Point", "coordinates": [ -46.8994865, -23.169692, 0.0 ] } },
{ "type": "Feature", "properties": { "Layer": "Limite OC", "PaperSpace": null, "SubClasses": "AcDbEntity:AcDbText:AcDbText", "Linetype": null, "EntityHandle": "6B2", "Text": "OC-66" }, "geometry": { "type": "Point", "coordinates": [ -46.8994588, -23.1697138, 0.0 ] } },
{ "type": "Feature", "properties": { "Layer": "Limite OC", "PaperSpace": null, "SubClasses": "AcDbEntity:AcDbText:AcDbText", "Linetype": null, "EntityHandle": "6B3", "Text": "OC-67" }, "geometry": { "type": "Point", "coordinates": [ -46.8994346, -23.169746, 0.0 ] } },
{ "type": "Feature", "properties": { "Layer": "Limite OC", "PaperSpace": null, "SubClasses": "AcDbEntity:AcDbText:AcDbText", "Linetype": null, "EntityHandle": "6B4", "Text": "OC-68" }, "geometry": { "type": "Point", "coordinates": [ -46.8994113, -23.1697868, 0.0 ] } },
{ "type": "Feature", "properties": { "Layer": "Limite OC", "PaperSpace": null, "SubClasses": "AcDbEntity:AcDbText:AcDbText", "Linetype": null, "EntityHandle": "6B5", "Text": "OC-69" }, "geometry": { "type": "Point", "coordinates": [ -46.8993922, -23.1698157, 0.0 ] } },
{ "type": "Feature", "properties": { "Layer": "Limite OC", "PaperSpace": null, "SubClasses": "AcDbEntity:AcDbText:AcDbText", "Linetype": null, "EntityHandle": "6B6", "Text": "OC-70" }, "geometry": { "type": "Point", "coordinates": [ -46.8993574, -23.1698338, 0.0 ] } },
{ "type": "Feature", "properties": { "Layer": "Limite OC", "PaperSpace": null, "SubClasses": "AcDbEntity:AcDbText:AcDbText", "Linetype": null, "EntityHandle": "6B7", "Text": "OC-71" }, "geometry": { "type": "Point", "coordinates": [ -46.8993394, -23.1698629, 0.0 ] } },
{ "type": "Feature", "properties": { "Layer": "Limite OC", "PaperSpace": null, "SubClasses": "AcDbEntity:AcDbText:AcDbText", "Linetype": null, "EntityHandle": "6B8", "Text": "OC-72" }, "geometry": { "type": "Point", "coordinates": [ -46.899315, -23.1698792, 0.0 ] } },
{ "type": "Feature", "properties": { "Layer": "Limite OC", "PaperSpace": null, "SubClasses": "AcDbEntity:AcDbText:AcDbText", "Linetype": null, "EntityHandle": "6B9", "Text": "OC-73" }, "geometry": { "type": "Point", "coordinates": [ -46.8992965, -23.1699094, 0.0 ] } },
{ "type": "Feature", "properties": { "Layer": "Limite OC", "PaperSpace": null, "SubClasses": "AcDbEntity:AcDbText:AcDbText", "Linetype": null, "EntityHandle": "6BA", "Text": "OC-74" }, "geometry": { "type": "Point", "coordinates": [ -46.8992913, -23.1699388, 0.0 ] } },
{ "type": "Feature", "properties": { "Layer": "Limite OC", "PaperSpace": null, "SubClasses": "AcDbEntity:AcDbText:AcDbText", "Linetype": null, "EntityHandle": "6BB", "Text": "OC-75" }, "geometry": { "type": "Point", "coordinates": [ -46.8992721, -23.1699602, 0.0 ] } },
{ "type": "Feature", "properties": { "Layer": "Limite OC", "PaperSpace": null, "SubClasses": "AcDbEntity:AcDbText:AcDbText", "Linetype": null, "EntityHandle": "6BC", "Text": "OC-76" }, "geometry": { "type": "Point", "coordinates": [ -46.8992579, -23.1699831, 0.0 ] } },
{ "type": "Feature", "properties": { "Layer": "Limite OC", "PaperSpace": null, "SubClasses": "AcDbEntity:AcDbText:AcDbText", "Linetype": null, "EntityHandle": "6BD", "Text": "OC-77" }, "geometry": { "type": "Point", "coordinates": [ -46.8992337, -23.1700076, 0.0 ] } },
{ "type": "Feature", "properties": { "Layer": "Limite OC", "PaperSpace": null, "SubClasses": "AcDbEntity:AcDbText:AcDbText", "Linetype": null, "EntityHandle": "6BE", "Text": "OC-78" }, "geometry": { "type": "Point", "coordinates": [ -46.8992147, -23.1700303, 0.0 ] } },
{ "type": "Feature", "properties": { "Layer": "Limite OC", "PaperSpace": null, "SubClasses": "AcDbEntity:AcDbText:AcDbText", "Linetype": null, "EntityHandle": "6BF", "Text": "OC-79" }, "geometry": { "type": "Point", "coordinates": [ -46.8992078, -23.170062, 0.0 ] } },
{ "type": "Feature", "properties": { "Layer": "Limite OC", "PaperSpace": null, "SubClasses": "AcDbEntity:AcDbText:AcDbText", "Linetype": null, "EntityHandle": "6C0", "Text": "OC-80" }, "geometry": { "type": "Point", "coordinates": [ -46.8991735, -23.1700844, 0.0 ] } },
{ "type": "Feature", "properties": { "Layer": "Limite OC", "PaperSpace": null, "SubClasses": "AcDbEntity:AcDbText:AcDbText", "Linetype": null, "EntityHandle": "6C1", "Text": "OC-81" }, "geometry": { "type": "Point", "coordinates": [ -46.8991648, -23.1701077, 0.0 ] } },
{ "type": "Feature", "properties": { "Layer": "Limite OC", "PaperSpace": null, "SubClasses": "AcDbEntity:AcDbText:AcDbText", "Linetype": null, "EntityHandle": "6C2", "Text": "OC-82" }, "geometry": { "type": "Point", "coordinates": [ -46.8991488, -23.1701356, 0.0 ] } },
{ "type": "Feature", "properties": { "Layer": "Limite OC", "PaperSpace": null, "SubClasses": "AcDbEntity:AcDbText:AcDbText", "Linetype": null, "EntityHandle": "6C3", "Text": "OC-83" }, "geometry": { "type": "Point", "coordinates": [ -46.8991275, -23.1701594, 0.0 ] } },
{ "type": "Feature", "properties": { "Layer": "Limite OC", "PaperSpace": null, "SubClasses": "AcDbEntity:AcDbText:AcDbText", "Linetype": null, "EntityHandle": "6C4", "Text": "OC-84" }, "geometry": { "type": "Point", "coordinates": [ -46.8991053, -23.1701767, 0.0 ] } },
{ "type": "Feature", "properties": { "Layer": "Limite OC", "PaperSpace": null, "SubClasses": "AcDbEntity:AcDbText:AcDbText", "Linetype": null, "EntityHandle": "6C5", "Text": "OC-85" }, "geometry": { "type": "Point", "coordinates": [ -46.8990893, -23.1702046, 0.0 ] } },
{ "type": "Feature", "properties": { "Layer": "Limite OC", "PaperSpace": null, "SubClasses": "AcDbEntity:AcDbText:AcDbText", "Linetype": null, "EntityHandle": "6C6", "Text": "OC-86" }, "geometry": { "type": "Point", "coordinates": [ -46.8990781, -23.1702301, 0.0 ] } },
{ "type": "Feature", "properties": { "Layer": "Limite OC", "PaperSpace": null, "SubClasses": "AcDbEntity:AcDbText:AcDbText", "Linetype": null, "EntityHandle": "6C7", "Text": "OC-87" }, "geometry": { "type": "Point", "coordinates": [ -46.8990571, -23.17026, 0.0 ] } },
{ "type": "Feature", "properties": { "Layer": "Limite OC", "PaperSpace": null, "SubClasses": "AcDbEntity:AcDbText:AcDbText", "Linetype": null, "EntityHandle": "6C8", "Text": "OC-88" }, "geometry": { "type": "Point", "coordinates": [ -46.8990346, -23.1702892, 0.0 ] } },
{ "type": "Feature", "properties": { "Layer": "Limite OC", "PaperSpace": null, "SubClasses": "AcDbEntity:AcDbText:AcDbText", "Linetype": null, "EntityHandle": "6C9", "Text": "OC-89" }, "geometry": { "type": "Point", "coordinates": [ -46.8990198, -23.1703105, 0.0 ] } },
{ "type": "Feature", "properties": { "Layer": "Limite OC", "PaperSpace": null, "SubClasses": "AcDbEntity:AcDbText:AcDbText", "Linetype": null, "EntityHandle": "6CA", "Text": "OC-90" }, "geometry": { "type": "Point", "coordinates": [ -46.8990147, -23.1703447, 0.0 ] } },
{ "type": "Feature", "properties": { "Layer": "Limite OC", "PaperSpace": null, "SubClasses": "AcDbEntity:AcDbText:AcDbText", "Linetype": null, "EntityHandle": "6CB", "Text": "OC-91" }, "geometry": { "type": "Point", "coordinates": [ -46.8989852, -23.170358, 0.0 ] } },
{ "type": "Feature", "properties": { "Layer": "Limite OC", "PaperSpace": null, "SubClasses": "AcDbEntity:AcDbText:AcDbText", "Linetype": null, "EntityHandle": "6CC", "Text": "OC-92" }, "geometry": { "type": "Point", "coordinates": [ -46.8989756, -23.170388, 0.0 ] } },
{ "type": "Feature", "properties": { "Layer": "Limite OC", "PaperSpace": null, "SubClasses": "AcDbEntity:AcDbText:AcDbText", "Linetype": null, "EntityHandle": "6CD", "Text": "OC-93" }, "geometry": { "type": "Point", "coordinates": [ -46.8989547, -23.1704131, 0.0 ] } },
{ "type": "Feature", "properties": { "Layer": "Limite OC", "PaperSpace": null, "SubClasses": "AcDbEntity:AcDbText:AcDbText", "Linetype": null, "EntityHandle": "6CE", "Text": "OC-94" }, "geometry": { "type": "Point", "coordinates": [ -46.8989299, -23.1704382, 0.0 ] } },
{ "type": "Feature", "properties": { "Layer": "Limite OC", "PaperSpace": null, "SubClasses": "AcDbEntity:AcDbText:AcDbText", "Linetype": null, "EntityHandle": "6CF", "Text": "OC-95" }, "geometry": { "type": "Point", "coordinates": [ -46.8989163, -23.1704621, 0.0 ] } },
{ "type": "Feature", "properties": { "Layer": "Limite OC", "PaperSpace": null, "SubClasses": "AcDbEntity:AcDbText:AcDbText", "Linetype": null, "EntityHandle": "6D0", "Text": "OC-96" }, "geometry": { "type": "Point", "coordinates": [ -46.8988907, -23.170475, 0.0 ] } },
{ "type": "Feature", "properties": { "Layer": "Limite OC", "PaperSpace": null, "SubClasses": "AcDbEntity:AcDbText:AcDbText", "Linetype": null, "EntityHandle": "6D1", "Text": "OC-97" }, "geometry": { "type": "Point", "coordinates": [ -46.8988789, -23.1705092, 0.0 ] } },
{ "type": "Feature", "properties": { "Layer": "Limite OC", "PaperSpace": null, "SubClasses": "AcDbEntity:AcDbText:AcDbText", "Linetype": null, "EntityHandle": "6D2", "Text": "OC-98" }, "geometry": { "type": "Point", "coordinates": [ -46.8988592, -23.1705441, 0.0 ] } },
{ "type": "Feature", "properties": { "Layer": "Limite OC", "PaperSpace": null, "SubClasses": "AcDbEntity:AcDbText:AcDbText", "Linetype": null, "EntityHandle": "6D3", "Text": "OC-99" }, "geometry": { "type": "Point", "coordinates": [ -46.8988278, -23.1705739, 0.0 ] } },
{ "type": "Feature", "properties": { "Layer": "Limite OC", "PaperSpace": null, "SubClasses": "AcDbEntity:AcDbText:AcDbText", "Linetype": null, "EntityHandle": "6D4", "Text": "OC-100" }, "geometry": { "type": "Point", "coordinates": [ -46.8988075, -23.1706062, 0.0 ] } },
{ "type": "Feature", "properties": { "Layer": "Limite OC", "PaperSpace": null, "SubClasses": "AcDbEntity:AcDbText:AcDbText", "Linetype": null, "EntityHandle": "6D5", "Text": "OC-101" }, "geometry": { "type": "Point", "coordinates": [ -46.8987927, -23.170635, 0.0 ] } },
{ "type": "Feature", "properties": { "Layer": "Limite OC", "PaperSpace": null, "SubClasses": "AcDbEntity:AcDbText:AcDbText", "Linetype": null, "EntityHandle": "6D6", "Text": "OC-102" }, "geometry": { "type": "Point", "coordinates": [ -46.8987447, -23.1707177, 0.0 ] } },
{ "type": "Feature", "properties": { "Layer": "Limite OC", "PaperSpace": null, "SubClasses": "AcDbEntity:AcDbText:AcDbText", "Linetype": null, "EntityHandle": "6D7", "Text": "OC-103" }, "geometry": { "type": "Point", "coordinates": [ -46.8987758, -23.1706641, 0.0 ] } },
{ "type": "Feature", "properties": { "Layer": "Limite OC", "PaperSpace": null, "SubClasses": "AcDbEntity:AcDbText:AcDbText", "Linetype": null, "EntityHandle": "6D8", "Text": "OC-104" }, "geometry": { "type": "Point", "coordinates": [ -46.8987028, -23.1707621, 0.0 ] } },
{ "type": "Feature", "properties": { "Layer": "Limite OC", "PaperSpace": null, "SubClasses": "AcDbEntity:AcDbText:AcDbText", "Linetype": null, "EntityHandle": "6D9", "Text": "OC-105" }, "geometry": { "type": "Point", "coordinates": [ -46.8986406, -23.1708627, 0.0 ] } },
{ "type": "Feature", "properties": { "Layer": "Limite OC", "PaperSpace": null, "SubClasses": "AcDbEntity:AcDbText:AcDbText", "Linetype": null, "EntityHandle": "6DA", "Text": "OC-106" }, "geometry": { "type": "Point", "coordinates": [ -46.8985237, -23.1711021, 0.0 ] } },
{ "type": "Feature", "properties": { "Layer": "Limite OC", "PaperSpace": null, "SubClasses": "AcDbEntity:AcDbText:AcDbText", "Linetype": null, "EntityHandle": "6DB", "Text": "OC-107" }, "geometry": { "type": "Point", "coordinates": [ -46.8989664, -23.1707562, 0.0 ] } },
{ "type": "Feature", "properties": { "Layer": "Limite OC", "PaperSpace": null, "SubClasses": "AcDbEntity:AcDbText:AcDbText", "Linetype": null, "EntityHandle": "6DC", "Text": "OC-108" }, "geometry": { "type": "Point", "coordinates": [ -46.8992534, -23.1703589, 0.0 ] } },
{ "type": "Feature", "properties": { "Layer": "Limite OC", "PaperSpace": null, "SubClasses": "AcDbEntity:AcDbText:AcDbText", "Linetype": null, "EntityHandle": "6DD", "Text": "OC-109" }, "geometry": { "type": "Point", "coordinates": [ -46.8999552, -23.1690684, 0.0 ] } },
{ "type": "Feature", "properties": { "Layer": "Limite OC", "PaperSpace": null, "SubClasses": "AcDbEntity:AcDbText:AcDbText", "Linetype": null, "EntityHandle": "6DE", "Text": "OC-110" }, "geometry": { "type": "Point", "coordinates": [ -46.9009214, -23.1679491, 0.0 ] } }
]
}
